state,abbreviation,agencyID,AgencyName,HistoricalDataAvailable,lat,long,zip,manualfip
Alabama,AL,AL-10,Tallapoosa County Vector Control ,Not Available,32.916719,-85.940589,35010,1123
Alabama,AL,AL-4,City of Helena Vector Control,Not Available,33.260081,-86.911474,35080,1117
Alabama,AL,AL-11,Talladega County Vector Control ,Not Available,33.356656,-86.052297,35160,1121
Alabama,AL,AL-9,"Birmingham, AL - public works",Not Available,33.518601,-86.809807,35203,
Alabama,AL,AL-12,Jefferson County Vector Control ,Not Available,33.508748,-86.801964,35233,
Alabama,AL,AL-13,Shelby County Vector Control ,Not Available,32.561974,-88.066347,35470,
Alabama,AL,AL-14,Sumter County Vector Control ,Not Available,32.561974,-88.066347,35470,
Alabama,AL,AL-6,Madison Vector Control,Not Available,34.711417,-86.74651,35758,
Alabama,AL,AL-5,Huntsville Vector Control,Not Available,34.563461,-86.519399,35804,
Alabama,AL,AL-15,Cherokee County Vector Control ,Not Available,34.124328,-85.570557,35960,
Alabama,AL,AL-16,DeKalb County Vector Control ,Not Available,34.407663,-85.694569,35967,1049
Alabama,AL,AL-17,Bullock County Vector Control ,Not Available,32.151049,-85.698646,36089,1011
Alabama,AL,AL-18,Elmore County Vector Control ,Not Available,32.617657,-86.200531,36092,
Alabama,AL,AL-8,Montgomery County Engineering Department,Not Available,32.403254,-86.326893,36104,
Alabama,AL,AL-1,Baldwin County Vector Control,Not Available,32.378728,-86.145011,36130,
Alabama,AL,AL-2,Calhoun County Vector Control,Not Available,33.64916,-85.879642,36201,
Alabama,AL,AL-19,Cleburne County Vector Control ,Not Available,33.596783,-85.551483,36264,1029
Alabama,AL,AL-20,Clay County Vector Control ,Not Available,33.349846,-85.734316,36266,1027
Alabama,AL,AL-21,Randolph County Vector Control ,Not Available,33.172406,-85.363142,36274,1111
Alabama,AL,AL-22,Conecuh County Environmental Health - Vector Control ,Not Available,31.480653,-86.940722,36401,1035
Alabama,AL,AL-23,Clarke County Vector Control ,Not Available,31.700517,-87.803568,36451,
Alabama,AL,AL-24,Monroe County Vector Control ,Not Available,31.518972,-87.304829,36460,1099
Alabama,AL,AL-25,Escambia County Vector Control ,Not Available,31.147733,-87.494821,36502,1053
Alabama,AL,AL-3,City of Gulf Shores Vector Control,Not Available,31.488511,-87.871704,36547,
Alabama,AL,AL-26,Blount County Vector Control,Not Available,30.478898,-87.703414,36580,
Alabama,AL,AL-7,Mobile County Vector Control,Not Available,30.681503,-88.300213,36608,
Alabama,AL,AL-27,Dallas County Vector Control ,Not Available,32.483972,-87.054642,36701,1047
Alabama,AL,AL-28,Wilcox County Vector Control ,Not Available,31.963626,-87.295936,36726,
Alabama,AL,AL-29,Perry Country Vector Control ,Not Available,32.683866,-87.27589,36756,1105
Alabama,AL,AL-30,Chambers County Vector Control ,Not Available,32.751613,-85.189484,36854,1017
Alabama,AL,AL-31,Russell County Vector Control ,Not Available,32.495317,-85.024588,36867,1113
Alabama,AL,AL-32,Choctaw County Vector Control ,Not Available,32.100587,-88.260758,36904,1023
Arizona,AZ,AZ-5,Maricopa County Mosquito Control,Not Available,33.443097,-112.128136,85009,
Arizona,AZ,AZ-7,Pinal County Vector Control,Not Available,32.926782,-111.215097,85132,
Arizona,AZ,AZ-4,City of Mesa Mosquito Control,Not Available,33.389733,-111.843505,85211,
Arizona,AZ,AZ-2,Chandler Vector Control,Not Available,33.361667,-111.741003,85244,
Arizona,AZ,AZ-8,Town of Gilbert Mosquito Control,Not Available,33.332328,-111.749802,85296,
Arizona,AZ,AZ-3,City of Glendale Mosquito Control,Not Available,33.535011,-112.181933,85301,
Arizona,AZ,AZ-9,La Paz County Environmental Health ,Not Available,34.080654,-114.216239,85344,
Arizona,AZ,AZ-10,Yuma County Vector Control ,Not Available,32.70226,-114.658013,85364,
Arizona,AZ,AZ-11,Gila County Environmental Health ,Not Available,33.559004,-110.769126,85501,
Arizona,AZ,AZ-12,Greenlee County Environmental Health Services ,Not Available,33.353944,-109.405783,85533,
Arizona,AZ,AZ-13,Graham County Environmental Health Services ,Not Available,32.813752,-109.35523,85546,
Arizona,AZ,AZ-14,Cochise County Vector Control Program ,Not Available,31.432669,-109.919056,85603,
Arizona,AZ,AZ-15,Santa Cruz County Environmental Health Services ,Not Available,31.387978,-110.912001,85621,
Arizona,AZ,AZ-6,Pima County Vector Control,Not Available,32.216958,-110.970999,85701,
Arizona,AZ,AZ-16,Apache County Environmental Health ,Not Available,34.652683,-109.268741,85936,
Arizona,AZ,AZ-17,Coconino County Environmental Services ,Not Available,35.287661,-111.639303,86001,
Arizona,AZ,AZ-18,Navajo County Environmental Health ,Not Available,34.930781,-110.104808,86025,
Arizona,AZ,AZ-19,Yavapai County Disease Prevention ,Not Available,34.864326,-112.911764,86305,
Arizona,AZ,AZ-20,Mohave County Environmental Health ,Not Available,35.461006,-114.01806,86409,
Arkansas,AR,AS-1,Jefferson County Health Unit - Pine Bluff ,Not Available,34.22,-92.0021887,71611,
Arkansas,AR,AS-2,Ashley County Health Unit - Crossett ,Not Available,33.131052,-91.996505,71635,
Arkansas,AR,AS-3,Desha County Health Unit - Dumas,Not Available,33.901476,-91.520374,71639,5041
Arkansas,AR,AS-4,Ashley County Health Unit - Hamburg ,Not Available,33.235544,-91.787587,71646,5003
Arkansas,AR,AS-5,Chicot County Health Unit - Lake Village ,Not Available,33.343373,-91.251768,71653,
Arkansas,AR,AS-6,Desha County Health Unit - McGehee,Not Available,33.62109,-91.371079,71654,
Arkansas,AR,AS-7,"
Drew County Health Unit - Monticello",Not Available,33.639802,-91.749587,71655,
Arkansas,AR,AS-8,Cleveland County Health Unit - Rison ,Not Available,33.930261,-92.109532,71665,5025
Arkansas,AR,AS-9,Lincoln County Health Unit - Star City ,Not Available,33.924489,-91.837089,71667,5079
Arkansas,AR,AS-10,Ouachita County Health Unit - Camden ,Not Available,33.586463,-92.81969,71701,5103
Arkansas,AR,AS-11,Union County Health Unit - El Dorado ,Not Available,33.198844,-92.627076,71730,
Arkansas,AR,AS-12,"Dallas County
Health Unit - Fordyce",Not Available,33.852672,-92.448887,71742,5039
Arkansas,AR,AS-13,St. Francis County Health Unit - Forrest City ,Not Available,33.889333,-93.097793,71743,5027
Arkansas,AR,AS-14,Columbia County Health Unit - Magnolia ,Not Available,33.225678,-93.184674,71753,
Arkansas,AR,AS-15,Hempstead County Health Unit - Hope ,Not Available,33.645886,-93.598921,71801,
Arkansas,AR,AS-16,Little River County Health Unit - Ashdown ,Not Available,33.663095,-94.156267,71822,
Arkansas,AR,AS-17,Sevier County Health Unit - DeQueen ,Not Available,34.036919,-94.351136,71832,
Arkansas,AR,AS-18,Lafayette County Health Unit - Lewisville ,Not Available,33.315595,-93.643959,71845,
Arkansas,AR,AS-19,Howard County Health Unit - Nashville ,Not Available,33.997681,-93.855553,71852,5061
Arkansas,AR,AS-20,Miller County Health Unit - Texarkana ,Not Available,33.451415,-93.881829,71854,
Arkansas,AR,AS-21,Nevada County Health Unit - Prescott ,Not Available,33.801468,-93.33759,71857,5099
Arkansas,AR,AS-22,Garland County Health Unit - Hot Springs ,Not Available,34.526453,-92.974072,71901,5051
Arkansas,AR,AS-23,Clark County Health Unit - Arkadelphia ,Not Available,34.085089,-93.04527,71923,5019
Arkansas,AR,AS-24,Montgomery County Health Unit - Mt. Ida ,Not Available,34.565024,-93.574701,71957,
Arkansas,AR,AS-25,Pike County Health Unit - Murfreesboro ,Not Available,34.123352,-93.664613,71958,
Arkansas,AR,AS-26,Woodruff County Health Unit - Augusta ,Not Available,35.243873,-91.359583,72006,
Arkansas,AR,AS-27,White County Health Unit - Beebe ,Not Available,35.094842,-91.907583,72012,
Arkansas,AR,AS-28,Saline County Health Unit - Benton ,Not Available,34.485899,-92.585099,72015,5125
Arkansas,AR,AS-29,Monroe County Health Unit - Brinkley ,Not Available,34.84554,-91.217479,72021,5095
Arkansas,AR,AS-30,Lonoke County Health Unit - Cabot ,Not Available,34.964267,-92.063652,72023,5085
Arkansas,AR,AS-31,Van Buren County Health Unit - Clinton ,Not Available,35.633661,-92.531647,72031,5141
Arkansas,AR,AS-32,Faulkner County Health Unit - Conway ,Not Available,35.089701,-92.4414384,72033,
Arkansas,AR,AS-33,Arkansas County Health Unit - DeWitt ,Not Available,34.26058,-91.324459,72042,
Arkansas,AR,AS-34,Pulaski County Health Unit - Jacksonville ,Not Available,34.916182,-92.141483,72076,5119
Arkansas,AR,AS-35,Lonoke County Health Unit - Lonoke ,Not Available,34.807021,-91.907681,72086,5085
Arkansas,AR,AS-36,Hot Spring County Health Unit - Malvern ,Not Available,34.342042,-92.821803,72104,5059
Arkansas,AR,AS-37,Conway County Health Unit - Morrilton ,Not Available,35.156495,-92.781326,72110,
Arkansas,AR,AS-38,Jackson County Health Unit - Newport ,Not Available,35.580917,-91.229715,72112,5067
Arkansas,AR,AS-39,Pulaski County Health Unit - North Little Rock ,Not Available,34.764902,-92.260348,72114,
Arkansas,AR,AS-40,Perry County Health Unit - Perryville ,Not Available,34.942765,-92.916204,72126,5105
Arkansas,AR,AS-41,White County Health Unit - Searcy ,Not Available,35.232983,-91.736474,72143,5145
Arkansas,AR,AS-42,Grant County Health Unit - Sheridan ,Not Available,34.31334,-92.394058,72150,5053
Arkansas,AR,AS-43,Arkansas County Health Unit - Stuttgart ,Not Available,34.427743,-91.528699,72160,5001
Arkansas,AR,AS-44,Arkansas Department of Health - Vector Control ,Not Available,34.750326,-92.351206,72205,
Arkansas,AR,AS-45,Pulaski County Health Unit - Southwest Little Rock ,Not Available,34.676378,-92.345074,72209,
Arkansas,AR,AS-46,Crittenden County Health Unit - West Memphis ,Not Available,35.144685,-90.189236,72301,5035
Arkansas,AR,AS-47,Mississippi County Health Unit - Blytheville ,Not Available,35.9323808,-89.9090106,72316,
Arkansas,AR,AS-48,Crittenden County - Earle ,Not Available,35.281034,-90.466305,72331,
Arkansas,AR,AS-49,Lee County Health Unit - Marianna ,Not Available,34.750302,-90.780771,72360,5077
Arkansas,AR,AS-50,Poinsett County Health Unit - Marked Tree ,Not Available,35.520937,-90.450084,72365,5111
Arkansas,AR,AS-51,Mississippi County Health Unit - Osceol ,Not Available,35.71448,-90.027718,72370,
Arkansas,AR,AS-52,Phillips County Health Unit - Helena- W. Helena ,Not Available,34.551045,-90.67941,72390,
Arkansas,AR,AS-53,Cross County Health Unit - Wynne ,Not Available,35.230088,-90.822532,72396,5037
Arkansas,AR,AS-54,Craighead County Health Unit - Jonesboro ,Not Available,35.886344,-90.656774,72401,5031
Arkansas,AR,AS-55,Clay County Health Unit - Corning ,Not Available,36.424558,-90.519488,72422,5021
Arkansas,AR,AS-56,Poinsett County Health Unit - Harrisburg ,Not Available,35.55269,-90.720042,72432,
Arkansas,AR,AS-57,Greene County Health Unit - Paragould,Not Available,36.079546,-90.51644,72450,5055
Arkansas,AR,AS-58,Clay County Health Unit - Piggott ,Not Available,36.406767,-90.202572,72454,
Arkansas,AR,AS-59,Randolph County Health Unit - Pocahontas ,Not Available,36.319648,-91.029167,72455,
Arkansas,AR,AS-60,Lawrence County Health Unit - Walnut Ridge ,Not Available,36.049514,-90.919912,72476,5075
Arkansas,AR,AS-61,Independence County Health Unit - Batesville ,Not Available,35.791171,-91.653381,72501,5063
Arkansas,AR,AS-62,Sharp County Health Unit - Ash Flat ,Not Available,36.226285,-91.658306,72513,5135
Arkansas,AR,AS-63,Cleburne County Health Unit - Heber Springs ,Not Available,35.450539,-91.987292,72543,
Arkansas,AR,AS-64,Izard County Health Unit - Melbourne ,Not Available,36.013879,-91.97001,72556,5065
Arkansas,AR,AS-65,Stone County Health Unit - Mountain View ,Not Available,35.851011,-92.094066,72560,5137
Arkansas,AR,AS-66,Fulton County Health Unit - Salem ,Not Available,36.348523,-91.856028,72576,5049
Arkansas,AR,AS-67,Newton County Health Unit - Jasper ,Not Available,35.986549,-93.243741,72641,
Arkansas,AR,AS-68,Searcy County Health Unit - Marshall ,Not Available,35.884317,-92.701437,72650,5129
Arkansas,AR,AS-69,Baxter County Health Unit - Mt. Home ,Not Available,36.342381,-92.38543,72653,5005
Arkansas,AR,AS-70,Marion County Health Unit - Yellville ,Not Available,36.262184,-92.706299,72687,5089
Arkansas,AR,AS-71,Washington County Health Unit - Fayetteville ,Not Available,36.118332,-94.043243,72703,5143
Arkansas,AR,AS-72,Madison County Health Unit - Huntsville ,Not Available,36.104648,-93.655397,72740,5087
Arkansas,AR,AS-73,Benton County Health Unit - Rogers ,Not Available,36.32298,-93.975959,72756,5007
Arkansas,AR,AS-74,Johnson County Health Unit - Clarksville ,Not Available,35.509167,-93.515619,72830,
Arkansas,AR,AS-75,Yell County Health Unit - Danville ,Not Available,35.021703,-93.472595,72833,5149
Arkansas,AR,AS-76,Yell County Health Unit - Dardanelle ,Not Available,35.168824,-93.183821,72834,5149
Arkansas,AR,AS-77,Logan County Health Unit - Paris ,Not Available,35.258968,-93.683862,72855,5083
Arkansas,AR,AS-78,Sebastian County Health Unit - Ft. Smith ,Not Available,35.350978,-94.361247,72903,
Arkansas,AR,AS-79,Logan County Health Unit - Booneville ,Not Available,35.080054,-93.939867,72927,5083
Arkansas,AR,AS-80,Franklin County Health Unit - Ozark ,Not Available,35.584277,-93.805165,72949,5047
Arkansas,AR,AS-81,Crawford County Health Unit - Van Buren ,Not Available,35.466396,-94.350067,72956,
Arkansas,AR,AS-82,Scott County Health Unit - Waldron ,Not Available,34.903819,-94.137036,72958,
California,CA,CA-6,Los Angeles County West Vector Control District,Not Available,33.997862,-118.393617,90230,
California,CA,CA-5,Greater Los Angeles County Vector Control District,Not Available,33.933565,-118.062611,90670,
California,CA,CA-17,Long Beach Vector Control Program ,Not Available,33.794348,-118.116391,90815,6037
California,CA,CA-18,Pasadena Public Health Department - Vector Control ,Not Available,34.169538,-118.164941,91103,
California,CA,CA-17,"West Valley Mosquito & Vector, CA",Not Available,34.035602,-117.591528,91761,6071
California,CA,CA-10,San Gabriel Valley Mosquito & Vector Control District,Not Available,34.066964,-117.937007,91790,
California,CA,CA-19,San Diego County Department of Environmental Health ,Not Available,32.7198551,-117.1621909,92112,
California,CA,CA-2,Coachella Valley Mosquito Control District,Data Available,33.710984,-116.204844,92202,
California,CA,CA-20,City of Blythe Vector Control ,Not Available,33.736458,-114.687973,92225,6065
California,CA,CA-21,Imperial County Vector Control Program ,Not Available,32.770197,-115.59859,92243,
California,CA,CA-22,San Bernardino CountyVector Control ,Not Available,34.1304104,-117.2740249,92415,
California,CA,CA-23,Riverside County Vector Control ,Not Available,33.729853,-117.03406,92545,
California,CA,CA-40,Orange County Vector Control District ,Not Available,38.186532,-122.264069,92843,
California,CA,CA-16,"Northwest Mosquito and Vector Control District, Riverside County, CA",Data Available,33.827409,-117.524128,92881,
California,CA,CA-24,Ventura County Mosquito Control ,Not Available,34.268836,-119.2144264,93009,
California,CA,CA-25,City of Moorpark Vector Control ,Not Available,34.295652,-118.897875,93021,
California,CA,CA-11,Mosquito and Vector Management District of Santa Barbara Country,Data Available,34.421964,-119.593483,93067,
California,CA,CA-27,Delano Mosquito Abatement District ,Not Available,35.77,-119.2521887,93215,6029
California,CA,CA-28,Kings County Vector Control ,Not Available,36.29223,-119.622676,93230,6031
California,CA,CA-29,South Fork Mosquito Abatement District ,Not Available,35.729116,-118.391888,93238,
California,CA,CA-15,"Delta Vector Control District, Tulare County, CA",Not Available,36.301334,-119.372586,93279,
California,CA,CA-30,Kern County Mosquito and Vector Control District ,Not Available,35.384336,-119.020562,93301,
California,CA,CA-31,Kern Mosquito Abatement and Vector Control ,Not Available,35.393866,-119.244846,93314,
California,CA,CA-41,Owens Valley Mosquito Abatement Program ,Not Available,37.5058202,-118.9162781,93514,6027
California,CA,CA-32,Antelope Valley Mosquito and Vector Control District ,Not Available,35.77,-119.2521887,93584,
California,CA,CA-33,Madera County Mosquito & Vector Control District ,Not Available,36.918079,-120.185933,93637,
California,CA,CA-3,Consolidated Mosquito Abatement District,Not Available,36.536573,-119.638651,93662,
California,CA,CA-34,Fresno Mosquito and Vectrol Control District ,Not Available,36.76886,-119.762393,93703,
California,CA,CA-39,North Salinas Valley Mosquito and Vector Control District ,Not Available,36.6847126,-121.6393961,93905,
California,CA,CA-35,San Mateo County Mosquito & Vector Control District ,Data Available,37.57028,-122.365778,94010,
California,CA,CA-36,San Francisco Department of Public Health ,Not Available,37.779588,-122.419318,94102,
California,CA,CA-37,Napa County Mosquito Abatement District ,Not Available,38.2076325,-122.3010055,94503,6055
California,CA,CA-4,Contra Costa Mosquito and Vector Control District,Data Available,37.995285,-122.040627,94520,
California,CA,CA-1,Alameda Mosquito Control District,Data Available,37.605905,-122.126873,94545,
California,CA,CA-7,Marin/Sonoma Mosquito Vector Control District,Not Available,38.324133,-122.714633,94931,
California,CA,CA-42,San Benito County Mosquito Abatement ,Not Available,36.8951447,-121.6281958,95023,6069
California,CA,CA-12,Santa Clara County Vector Control District,Not Available,37.344482,-121.883535,95112,
California,CA,CA-43,San Joaquin County Mosquito & Vector Control District ,Not Available,37.918854,-121.417427,95206,
California,CA,CA-44,Saddle Creek Community Services Mosquito Abatement ,Not Available,37.90723,-120.688307,95228,6009
California,CA,CA-45,Calaveras County Mosquito and Vector Control District ,Not Available,38.189115,-120.638708,95249,
California,CA,CA-46,Mariposa County Mosquito Abatement/Vector Control District ,Not Available,37.508765,-119.982496,95338,
California,CA,CA-8,Merced County Mosquito Abatement District,Not Available,37.231045,-120.501072,95341,
California,CA,CA-47,East Side Moqsuito Abatement District ,Not Available,37.672536,-120.887136,95357,
California,CA,CA-48,Turlock Mosquito Abatement District ,Not Available,37.474396,-120.875917,95380,6099
California,CA,CA-49,Mendocino County Environmental Health Division - Ft. Bragg ,Not Available,39.487185,-123.741963,95437,
California,CA,CA-50,Lake County Vector Control District ,Not Available,39.045931,-122.941077,95453,
California,CA,CA-51,Humboldt County Vector Control Program ,Not Available,40.798659,-124.151583,95501,
California,CA,CA-52,Del Norte County Pest Management ,Not Available,41.819578,-124.065667,95531,
California,CA,CA-9,Sacramento-Yolo Mosquito and Vector Control District,Not Available,38.427507,-121.314899,95624,
California,CA,CA-53,Amador County Vector Control & Diseases ,Not Available,38.343033,-120.760921,95642,
California,CA,CA-54,El Dorado County Vector Control ,Not Available,38.734925,-120.789952,95667,
California,CA,CA-55,Placer County Mosquito & Vector Control District ,Data Available,38.76407,-121.287523,95678,6061
California,CA,CA-56,Colusa Mosquito Abatement District ,Not Available,39.266469,-121.978604,95932,
California,CA,CA-38,Nevada County Vector Program ,Not Available,39.3742834,-121.1524825,95959,
California,CA,CA-14,"Butte County Mosquito and Vector Control District, CA",Not Available,39.593945,-121.581363,95965,
California,CA,CA-57,Glenn County Mosquito and Vector Control District ,Not Available,39.491654,-122.26208,95988,6021
California,CA,CA-13,Sutter-Yuba Mosquito & Vector Control District,Not Available,38.994187,-121.594591,95992,
California,CA,CA-58,Tehama County Mosquito and Vector Control District ,Not Available,40.18189,-122.377104,96080,
California,CA,CA-59,City of Alturas Public Mosquito and Vector Control ,Not Available,41.452711,-120.53846,96101,
California,CA,CA-60,Lassen County Vector and Rabies Control ,Not Available,40.551757,-120.675673,96130,
Colorado,CO,CO-13,Broomfield County Mosquito Control ,Data Available,39.9666243,-105.133628,80020,8013
Colorado,CO,CO-2,Boulder County Mosquito Control District,Data Available,39.817067,-105.011035,80221,8013
Colorado,CO,CO-10,City of Longmont Mosquito Control Program,Data Available,40.164837,-105.103179,80501,
Colorado,CO,CO-7,City of Fort Collins Mosquito Control Program,Data Available,40.646857,-105.029513,80524,8069
Colorado,CO,CO-8,Town of Johnstown Mosquito Control Program,Data Available,40.331863,-104.937467,80534,8123
Colorado,CO,CO-9,City of Loveland Mosquito Control Program,Data Available,40.363199,-105.176682,80537,8069
Colorado,CO,CO-11,Town of Timnath Mosquito Control Program,Data Available,40.52663,-104.965364,80547,8069
Colorado,CO,CO-12,Town of Windsor Mosquito Control Program,Data Available,40.484657,-104.900983,80550,8123
Colorado,CO,CO-1,Alamosa Mosquito Control District,Not Available,37.481245,-105.833213,81101,8003
Colorado,CO,CO-6,Montezuma Mosquito Control District,Not Available,37.31297,-108.734537,81321,
Colorado,CO,CO-3,Delta County Mosquito Control District,Not Available,38.752074,-108.136959,81416,8029
Colorado,CO,CO-5,Grand River Mosquito Control District,Not Available,39.071848,-108.547131,81501,
Colorado,CO,CO-4,Garfield County Mosquito Control Program,Data Available,39.751037,-108.113722,81650,8045
Colorado ,CO,CO-14,Tri-County Health Department - Aurora ,Not Available,39.738764,-104.782159,80011,8005
Colorado ,CO,CO-15,Tri-County Health Department - Commerce City ,Not Available,39.879646,-104.798722,80022,8001
Colorado ,CO,CO-16,Douglas County Mosquito Mitigation Program ,Not Available,39.364264,-104.901376,80109,
Colorado ,CO,CO-17,Tri-County Health Department - Castle Rock ,Not Available,39.364264,-104.901376,80109,
Colorado ,CO,CO-18,Elbert County Public Health - Environmental Health ,Not Available,39.369612,-104.342901,80117,
Colorado ,CO,CO-19,Jefferson County Environmental Health - Zoonosis Disease Control ,Not Available,39.718726,-105.236031,80401,
Colorado ,CO,CO-20,Larimer County Department of Health - Communicable Disease Control ,Not Available,40.594597,-105.127416,80521,
Colorado ,CO,CO-21,Pueblo County Environmental Health - Zoonoses ,Not Available,38.279592,-104.631463,81003,
Colorado ,CO,CO-22,Animas Mosquito Control District ,Not Available,37.441078,-107.852781,81301,8067
Colorado ,CO,CO-23,Mesa County Mosquito Control ,Not Available,39.079633,-108.490284,81504,
Colorado ,CO,CO-24,Moffat County Weed and Pest Management ,Not Available,40.745223,-107.694794,81625,8081
Colorado ,CO,CO-25,Eagle County Mosquito Control,Not Available,39.629385,-106.75004,81631,
Connecticut,CT,CT-1,Connecticut Agricultural Experiment Station,Not Available,41.31703,-72.927316,6511,
Delaware,DE,DE-1,Delaware Mosquito Control Section,Not Available,39.181546,-75.473517,19901,
Delaware,DE,NA,New Castle/Northern Kent County Mosquito Control Section ,Not Available,38.943253,-75.362567,19963,10005
District of Columbia,DC,DC-1,D.C. Department of Health,Not Available,38.905026,-76.983607,20002,
Georgia,GA,NA,Rockdale County Environmental Health ,Not Available,33.717806,-84.002515,30012,13247
Georgia,GA,NA,City of Valdosta Mosquito Population ,Not Available,30.758721,-83.319023,31601,
Florida,FL,FL-1,Amelia Island MCD (Nassau county),Not Available,30.609692,-81.49172,32035,
Florida,FL,FL-25,Clay County Public Works Department,Not Available,29.937041,-81.732588,32043,12019
Florida,FL,FL-29,Columbia County Mosquito Control District,Not Available,30.270103,-82.62413,32055,12023
Florida,FL,FL-3,Anastasia MCD (St. Johns County),Not Available,29.818745,-81.27286,32080,12109
Florida,FL,FL-9,Bradford County Mosquito Control District,Not Available,29.929564,-82.127579,32091,12007
Florida,FL,FL-32,East Flagler County Mosquito Control,Data Available,29.581507,-81.218196,32137,
Florida,FL,FL-52,Volusia County Mosquito Control,Not Available,28.963773,-81.029413,32168,
Florida,FL,FL-34,Putnam County Mosquito Control,Not Available,29.690907,-81.708149,32177,
Florida,FL,FL-49,Jacksonville Mosquito Control (Duval County),Not Available,30.487775,-81.667141,32218,
Florida,FL,FL-2,Leon County Mosquito Control District,Not Available,30.47745,-84.226927,32308,
Florida,FL,FL-6,Liberty County Mosquito Control,Not Available,30.26544,-84.979665,32321,12077
Florida,FL,FL-54,Wakulla County Mosquito Control,Not Available,30.182261,-84.305327,32327,12129
Florida,FL,FL-37,Franklin County Mosquito Control,Not Available,29.751831,-84.909118,32328,
Florida,FL,FL-8,Madison County Mosquito Control,Not Available,30.46033,-83.433967,32350,
Florida,FL,FL-59,Jefferson County Mosquito Control,Not Available,30.526078,-83.962287,32344,12065
Florida,FL,FL-50,Taylor County Mosquito Control,Not Available,30.174157,-83.611588,32347,
Florida,FL,FL-5,Bay County Mosquito Control (panama city),Not Available,30.189031,-85.506785,32404,
Florida,FL,FL-7,Beach MCD (Panama City Beach),Data Available,30.198324,-85.790694,32407,
Florida,FL,FL-17,Calhoun County Mosquito Control District,Not Available,30.362385,-85.08306,32424,
Florida,FL,FL-60,Holmes County Mosquito Control,Not Available,30.853184,-85.720492,32425,12059
Florida,FL,FL-55,Washington County Mosquito Control,Not Available,30.61575,-85.572945,32428,12133
Florida,FL,FL-20,North Walton Mosquito Control,Not Available,30.648635,-86.1302,32435,
Florida,FL,FL-61,Jackson County Mosquito Control,Not Available,30.75995,-85.251574,32447,
Florida,FL,FL-41,Gulf County Mosquito Control,Not Available,29.838635,-85.298379,32456,12045
Florida,FL,FL-46,South Walton County Mosquito Control,Not Available,30.360668,-86.185532,32459,
Florida,FL,FL-33,Escambia County Mosquito Control,Not Available,30.610506,-87.326783,32533,
Florida,FL,FL-22,Okaloosa County Mosquito Control,Not Available,30.403001,-86.650482,32548,
Florida,FL,FL-40,Santa rosa county mosquito control,Not Available,30.592511,-86.971003,32583,
Florida,FL,FL-4,Levy County Mosquito Control,Not Available,29.424698,-82.610144,32621,
Florida,FL,FL-23,City of Gainesville Mosquito Control,Not Available,29.423864,-82.899324,32627,
Florida,FL,FL-31,Dixie County Mosquito Control,Not Available,29.625434,-83.207,32628,
Florida,FL,FL-44,Seminole County Mosquito Control,Not Available,28.754849,-81.246937,32773,
Florida,FL,FL-51,Lake County Mosquito Control District,Not Available,28.773373,-81.730074,32778,
Florida,FL,FL-11,Brevard County Mosquito Control District,Not Available,28.533319,-80.792029,32780,
Florida,FL,FL-24,Orange County Mosquito Control,Not Available,28.488069,-81.407208,32839,
Florida,FL,FL-47,Indian River Mosquito Control District,Not Available,27.715491,-80.454288,32967,
Florida,FL,FL-13,Broward County Mosquito Control District,Not Available,25.9892,-80.217067,33023,12011
Florida,FL,FL-35,Florida Keys Mosquito Control,Not Available,24.560908,-81.889478,33040,
Florida,FL,FL-16,Miami-Dade County Mosquito Control,Not Available,25.776168,-80.203733,33128,
Florida,FL,FL-28,Palm Beach County Mosquito Control,Not Available,26.596362,-80.175602,33467,
Florida,FL,FL-18,Moore Haven Mosquito Control District,Not Available,26.884624,-81.198234,33471,12043
Florida,FL,FL-48,Sumter County Mosquito Control,Not Available,28.714262,-82.194963,33513,
Florida,FL,FL-30,Pasco County Mosquito Control District,Not Available,28.134809,-82.591459,33556,12101
Florida,FL,FL-45,Hillsborough County Mosquito Control District,Not Available,27.998214,-82.378016,33610,
Florida,FL,FL-56,Pinellas County Mosquito Control,Not Available,27.899189,-82.679506,33762,
Florida,FL,FL-57,Polk County Mosquito Control,Data Available,27.87343,-81.812659,33830,
Florida,FL,FL-53,Lee County Mosquito Control District,Not Available,26.639584,-81.699699,33971,
Florida,FL,FL-58,hendry county mosquito control msbu,Not Available,26.562706,-81.601925,33975,
Florida,FL,FL-19,Charlotte County Mosquito Control,Not Available,26.983504,-82.043606,33980,
Florida,FL,FL-27,Collier Mosquito Control District,Not Available,26.149955,-81.741562,34104,
Florida,FL,FL-10,Manatee County Mosquito Control District,Data Available,27.581094,-82.554803,34221,
Florida,FL,FL-42,Sarasota County Mosquito Management,Not Available,27.280031,-82.476631,34233,
Florida,FL,FL-21,Citrus County Mosquito Control District,Not Available,28.866144,-82.494509,34461,
Florida,FL,FL-12,Marion County Mosquito Control,Not Available,29.198907,-82.087425,34470,
Florida,FL,FL-43,Hernando County Mosquito Control,Not Available,28.588628,-82.351186,34601,12053
Florida,FL,FL-26,Osceola County Mosquito Control,Not Available,28.30637,-81.42706,34741,
Florida,FL,FL-15,Buckhead Ridge Mosquito Control,Not Available,27.145973,-80.949686,34974,12043
Florida,FL,FL-38,St. Lucie County Mosquito Control District,Not Available,27.373264,-80.308018,34982,
Florida,FL,FL-14,Martin County Mosquito Control,Not Available,27.192817,-80.189813,34996,
Florida,FL,FL-39,Gadsden County Mosquito Control,Not Available,30.662261,-84.591627,32351,12039
Georgia,GA,GA-1,Bartow County,Not Available,34.167879,-84.852014,30120,13015
Georgia,GA,GA-10,Clayton County,Not Available,33.524478,-84.325439,30236,13063
Georgia,GA,GA-16,Henry County,Not Available,33.448926,-84.18357,30253,
Georgia,GA,GA-14,Fulton County,Not Available,33.753259,-84.389953,30303,
Georgia,GA,GA-4,Bulloch County,Not Available,32.399676,-81.828266,30459,
Georgia,GA,GA-9,Athens-Clarke County,Not Available,33.944542,-83.372937,30603,
Georgia,GA,GA-6,Catoosa County Health Department,Not Available,34.902663,-85.13397,30736,13047
Georgia,GA,GA-20,Richmond County,Not Available,33.470481,-82.083045,30909,13245
Georgia,GA,GA-2,Macon-Bibb County,Not Available,32.844147,-83.500044,31217,13021
Georgia,GA,GA-18,Liberty County,Not Available,31.765504,-81.368411,31320,
Georgia,GA,GA-3,Bryan County,Not Available,32.185059,-81.659775,31321,13029
Georgia,GA,GA-13,Effingham County,Not Available,32.425638,-81.350634,31329,
Georgia,GA,GA-8,Chatham County (largest in state),Not Available,32.11755,-81.184333,31408,
Georgia,GA,GA-22,Ware County,Not Available,31.223623,-82.350198,31502,
Georgia,GA,GA-15,Glynn County,Not Available,31.180919,-81.493973,31520,
Georgia,GA,GA-11,Coffee County,Not Available,31.560258,-82.828039,31533,
Georgia,GA,GA-7,Charlton County,Not Available,30.885212,-82.00523,31537,13049
Georgia,GA,GA-5,Camden County,Not Available,30.796163,-81.698233,31548,
Georgia,GA,GA-19,Lowndes County,Not Available,30.868774,-83.342695,31603,
Georgia,GA,GA-12,Doughtery County,Not Available,31.552695,-84.159214,31701,13095
Georgia,GA,GA-17,Lee County,Not Available,31.750045,-84.139141,31763,13177
Georgia,GA,GA-21,Tift County,Not Available,31.462511,-83.593543,31793,
Idaho,ID,ID-14,Bannock County Mosquito Abatement District ,Not Available,42.856338,-112.629866,83204,16005
Idaho,ID,ID-15,Bingham County Mosquito Abatement District ,Not Available,43.324081,-112.552045,83221,
Idaho,ID,ID-3,Custer County Mosquito Abatement District,Not Available,42.233673,-112.060271,83231,
Idaho,ID,ID-9,Mackay Mosquito District - Custer County,Not Available,43.94358,-113.881212,83251,
Idaho,ID,ID-1,Bear River Mosquito Abatement District,Not Available,42.328779,-111.271877,83254,
Idaho,ID,ID-16,Franklin County Mosquito Abatement District ,Not Available,42.181249,-111.753213,83263,
Idaho,ID,ID-4,Fairfield Mosquito Abatement District,Not Available,43.492599,-114.809455,83327,16025
Idaho,ID,ID-11,The City of Menan,Not Available,43.752647,-112.006385,83434,16051
Idaho,ID,ID-10,Madison County Mosquito Abatement District,Not Available,43.81469,-111.822546,83440,16065
Idaho,ID,ID-8,Jefferson County Mosquito Abatement District,Not Available,43.671986,-111.893369,83442,16051
Idaho,ID,ID-5,Fremont County Mosquito Abatement District,Not Available,43.979292,-111.767357,83445,16043
Idaho,ID,ID-17,North Central District Health - Environmental Health ,Not Available,46.208729,-116.913734,83501,
Idaho,ID,ID-6,Gem County Mosquito Abatement District,Data Available,43.936819,-116.505193,83617,
Idaho,ID,ID-13,Ada County Mosquito Abatement,Data Available,43.568006,-116.404411,83642,
Idaho,ID,ID-2,Canyon County Mosquito Abatement District,Data Available,43.492217,-116.607705,83686,
Illinois,IL,IL-6,Village of Grayslake Mosquito Abatement,Not Available,42.337078,-88.044326,60030,
Illinois,IL,IL-7,"Lake County Insect, Vector, and Rodent Control",Not Available,42.295408,-87.950611,60048,
Illinois,IL,IL-1,"Northwest Mosquito Abatement District, IL",Data Available,42.129614,-87.921503,60090,17031
Illinois,IL,IL-2,"North Shore Mosquito Abatement District, IL",Data Available,42.106708,-87.756292,60093,
Illinois,IL,IL-8,McHenry County Environmental Health - Nuisance Program,Not Available,42.326265,-88.456087,60098,
Illinois,IL,IL-9,Milton Mosquito Abatement District,Not Available,41.87272,-88.112442,60187,
Illinois,IL,IL-10,Oak Park Public Health - Nuisance Control,Not Available,41.894609,-87.789711,60302,
Illinois,IL,IL-4,"South Cook County Mosquito Abatement District, IL",Not Available,41.610343,-87.653395,60426,
Illinois,IL,IL-11,Grundy County Environmental Health - Nuisance Complaint Program,Not Available,41.366293,-88.434561,60450,17063
Illinois,IL,IL-12,Kane County Environmental Health Nuisance Control,Not Available,41.765703,-88.363853,60506,17089
Illinois,IL,IL-3,"Desplaines Valley Mosquito Abatement District, IL",Data Available,41.813484,-87.823564,60534,
Illinois,IL,IL-13,Kendall County Health Department - Nuisance Program,Not Available,41.60822,-88.429346,60560,
Illinois,IL,IL-14,Kankakee Environmental Health - Vector Control,Not Available,41.109505,-87.897917,60901,
Illinois,IL,IL-15,Ford-Iroquois Environmental Health - Vector Control,Not Available,40.796024,-87.734451,60970,
Illinois,IL,IL-16,Boone County Department of Public Health - Nuisance Control,Not Available,42.24429,-88.841131,61008,17007
Illinois,IL,IL-17,Lee County Vector Control Program,Not Available,41.827392,-89.479188,61021,17103
Illinois,IL,IL-18,Jo Daviess County Health Department - Vector Control,Not Available,42.413677,-90.375911,61036,
Illinois,IL,IL-19,Ogle County Health Department - Nuisance Control,Not Available,41.997917,-89.341656,61061,
Illinois,IL,IL-20,Winnebago County Environmental Health,Not Available,42.25172,-89.079945,61104,
Illinois,IL,IL-21,Rock Island County Environmental Health,Not Available,41.477559,-90.575628,61201,
Illinois,IL,IL-22,Putnam County Environmental Health Services,Not Available,41.22671,-89.311467,61327,
Illinois,IL,IL-23,LaSalle County Environmental Health - Nuisance Program,Not Available,41.372095,-88.865127,61350,
Illinois,IL,IL-24,Bureau County Environmental Health Services,Not Available,41.396035,-89.413241,61356,
Illinois,IL,IL-25,Knox County Health Department - Mosquito Surveillance,Not Available,40.944205,-90.385824,61401,17095
Illinois,IL,IL-26,Henry-Stark County Health Department - Nuisance Control,Not Available,41.263671,-89.944897,61443,17073
Illinois,IL,IL-27,"McDonough County Insect, Vector, and Rodent Control",Not Available,40.440468,-90.638016,61455,
Illinois,IL,IL-28,Fulton County Health - Nuisance Contol,Not Available,40.539026,-90.023221,61520,17057
Illinois,IL,IL-29,Marshall County Environmental Health Services,Not Available,41.0146,-89.366597,61540,
Illinois,IL,IL-30,Tazewell County Environmental Health - Vector Control,Not Available,40.51056,-89.481508,61568,
Illinois,IL,IL-31,Peoria County Vector Control,Not Available,40.705715,-89.653644,61604,
Illinois,IL,IL-32,McLean County Environmental Health,Not Available,40.476769,-88.992994,61701,
Illinois,IL,IL-33,DeWitt-Piatt Vector Control Program - DeWitt County Office,Not Available,40.142554,-88.960868,61727,
Illinois,IL,IL-34,Champaign-Urbana Public Health District,Not Available,40.10789,-88.244266,61820,
Illinois,IL,IL-35,Vermilion County Vection Prevention and Pest Control,Not Available,40.136234,-87.636466,61832,
Illinois,IL,IL-36,DeWitt-Piatt Vector Control Program - Piatt County Office,Not Available,40.026762,-88.580118,61856,17147
Illinois,IL,IL-37,Coles County Environmental Health Services,Not Available,39.512028,-88.154235,61920,17029
Illinois,IL,IL-38,Douglas County Health Department - Nuisance Control,Not Available,39.803409,-88.291339,61953,17041
Illinois,IL,IL-39,Greene/Scott County Health Department - Vector Control Program,Not Available,39.295025,-90.431767,62016,
Illinois,IL,IL-40,Macoupin County Public Health Department,Not Available,39.136567,-89.839885,62033,
Illinois,IL,IL-41,Calhoun County Environmental Health Program,Not Available,39.123135,-90.626568,62047,
Illinois,IL,IL-42,Montgomery County Vector Control,Not Available,39.131717,-89.481382,62049,
Illinois,IL,IL-43,Jersey County Health Department - Vector Control,Not Available,39.110571,-90.321217,62052,
Illinois,IL,IL-44,Madison County Environmental Health Services,Not Available,38.861343,-90.069002,62095,
Illinois,IL,IL-45,St. Clair County Mosquito Control,Not Available,38.478277,-89.998032,62220,
Illinois,IL,IL-46,Bond County Health Department - Nuisance Control,Not Available,38.890366,-89.427577,62246,17005
Illinois,IL,IL-47,Brown County Health Department - Nuisance Control,Not Available,39.967967,-90.756345,62353,
Illinois,IL,IL-48,Pike County Environmental Health - Nuisance Control,Not Available,39.590496,-90.769665,62363,17149
Illinois,IL,IL-49,Effingham County Environmental Health - Vector Control,Not Available,39.118722,-88.562385,62401,17049
Illinois,IL,IL-50,Lawrence County Environmental Health Program - Nuisance and Mosquito Control,Not Available,38.744062,-87.639699,62439,
Illinois,IL,IL-51,Cumberland County Environmental Health,Not Available,39.276946,-88.270309,62468,
Illinois,IL,IL-5,"Macon Mosquito Abatement District, IL",Not Available,39.901605,-88.989407,62526,
Illinois,IL,IL-52,Shelby County Environmental Health,Not Available,39.411777,-88.804095,62565,
Illinois,IL,IL-53,Christian County Environmental Health Services - Nuisance Control,Not Available,39.561004,-89.289158,62568,
Illinois,IL,IL-54,Morgan County Environmental Health,Not Available,39.734542,-90.223047,62650,17137
Illinois,IL,IL-55,Logan County Environmental Health Services - Nuisance Control,Not Available,40.140745,-89.370598,62656,
Illinois,IL,IL-56,Menard County Environmental Health,Not Available,40.036029,-89.847921,62675,17129
Illinois,IL,IL-57,Sangamon County Environmental Health,Not Available,39.762432,-89.629838,62703,
Illinois,IL,IL-58,Illinois Department of Health - Vector Control,Not Available,39.8037967,-89.6630751,62761,
Illinois,IL,IL-59,Wayne County Environmental Health - Nuisance Control,Not Available,38.360406,-88.352856,62837,
Illinois,IL,IL-60,Clay County Environmental Health Program,Not Available,38.665702,-88.501238,62839,17025
Illinois,IL,IL-61,Egyptian Health Department Vector Control,Not Available,37.822024,-88.186317,62979,
Illinois,IL,IL-62,Southern Seven Health Department - Vector Control,Not Available,37.280117,-89.165805,62992,17153
Indiana,IN,IN-8,Boone County Insect and Rodent Control,Not Available,40.042907,-86.456535,46052,18011
Indiana,IN,IN-2,Hamilton County Vector Control Program,Not Available,40.064624,-85.915911,46060,18057
Indiana,IN,IN-9,Hendricks County Health Department - Vector Control,Not Available,39.773312,-86.551134,46122,
Indiana,IN,IN-3,Johnson County Health Department,Not Available,39.473489,-86.043592,46131,18081
Indiana,IN,IN-10,Hancock County Environmental Health Department,Not Available,39.801973,-85.772071,46140,18059
Indiana,IN,IN-11,Shelby County Health Department - Environmental Division,Not Available,39.527281,-85.774394,46176,18145
Indiana,IN,IN-12,Indiana State Department of Health - Vector Control,Not Available,39.771994,-86.156997,46204,
Indiana,IN,IN-1,MarionCounty Public Health Department Mosquito Control,Not Available,39.807262,-86.099746,46218,
Indiana,IN,IN-5,LaPorte County Health Department,Not Available,41.607057,-86.721724,46350,
Indiana,IN,IN-13,Michigan City Vector Control,Not Available,41.68934,-86.869265,46360,18091
Indiana,IN,IN-7,Elkhart County Health Department,Not Available,41.676594,-85.944127,46516,
Indiana,IN,IN-6,St Joseph County Health Department,Not Available,41.714357,-86.201743,46635,
Indiana,IN,IN-14,Harrison County Environmental Health - Mosquito Control,Not Available,38.195517,-86.162499,47112,18061
Indiana,IN,IN-15,Clark County Mosquito Control Program,Not Available,38.332696,-85.696419,47130,
Indiana,IN,IN-16,Floyd County Health Department - Mosquito Control,Not Available,38.283506,-85.847601,47150,18043
Indiana,IN,IN-17,Bartholomew County Environmental Health,Not Available,39.158873,-85.993199,47201,18005
Indiana,IN,IN-18,Jefferson County Health Department - Mosquito Control,Not Available,38.815317,-85.351135,47250,18077
Indiana,IN,IN-19,Jackson County Environmental Services - Vector Control,Not Available,38.966511,-85.937722,47274,18071
Indiana,IN,IN-20,Fayette County Environmental Health - Vector Control,Not Available,39.624084,-85.157338,47331,18041
Indiana,IN,IN-21,Monroe County Animal & Vector Control,Not Available,39.219531,-86.591196,47404,18105
Indiana,IN,IN-22,Vanderburgh County Health Department - Vector Control,Not Available,37.954531,-87.559175,47713,
Indiana,IN,IN-23,Vigo County Health Department - Vector Control,Not Available,39.472935,-87.403423,47807,
Indiana,IN,IN-24,Tippecanoe County Health Department - Environmental Division,Not Available,40.417778,-86.889633,47901,
Iowa,IA,IA-7,Marshall County,Not Available,42.049806,-92.900739,50158,19127
Iowa,IA,IA-13,Story county,Data Available,42.041723,-93.434905,50201,
Iowa,IA,IA-8,Polk County,Data Available,41.584603,-93.620836,50309,
Iowa,IA,IA-3,Cerro Gordo County,Not Available,43.153169,-93.19982,50401,19033
Iowa,IA,IA-2,Black Hawk County,Data Available,42.548059,-92.286431,50703,
Iowa,IA,IA-10,Ringgold County,Not Available,40.679375,-94.21277,50854,
Iowa,IA,IA-12,Sioux County,Not Available,43.02608,-96.077893,51041,19167
Iowa,IA,IA-15,Woodbury County (Siouxland District),Data Available,42.51194,-96.352258,51105,
Iowa,IA,IA-16,Carroll County,Not Available,41.9155501,-95.0545744,51401,
Iowa,IA,IA-9,Pottawattamie County,Data Available,41.227277,-95.878439,51501,
Iowa,IA,IA-4,Dubuque County,Data Available,42.545527,-90.695841,52001,
Iowa,IA,IA-5,Johnson County,Not Available,41.635728,-91.500622,52240,
Iowa,IA,IA-6,Linn County,Data Available,41.923056,-91.698866,52404,19113
Iowa,IA,IA-14,Wapello county,Not Available,41.035705,-92.43137,52501,19179
Iowa,IA,IA-11,Scott County,Data Available,41.521038,-90.574849,52801,
Kansas,KS,KS-1,Kansas Department of Health and Environment / Kansas Biological Survey (Wichita data),Data Available,37.742432,-97.495544,67223,
Kentucky,KY,KY-3,Bullitt County Environmental Health Services,Not Available,37.973087,-85.672012,40165,
Kentucky,KY,KY-1,Louisville Mosquito Control,Not Available,38.256783,-85.754048,40202,
Kentucky,KY,KY-4,Anderson County Health Department - Rodent & Vector Control,Not Available,37.995815,-84.979522,40342,21005
Kentucky,KY,KY-5,Jessamine County Environmental Health Services,Not Available,37.874952,-84.563367,40356,21113
Kentucky,KY,KY-6,Wedco District Health Environmental Services,Not Available,38.208885,-84.227201,40361,21017
Kentucky,KY,KY-7,Clark County Rodent and Insect Ifestation Investigation,Not Available,37.970133,-84.144974,40391,21049
Kentucky,KY,KY-8,Boyle County Environmental Services - Nuisance Abatement and Rodent Control,Not Available,37.6500042,-84.7721887,40422,21021
Kentucky,KY,KY-9,Garrard County Environmental Services - Rodent & Vector Control,Not Available,37.666711,-84.577249,40444,21079
Kentucky,KY,KY-10,Madison County Environmental Health Services,Not Available,37.7616,-84.312523,40475,
Kentucky,KY,KY-2,Lexington-Fayette County Health Department,Not Available,38.061351,-84.511664,40508,
Kentucky,KY,KY-11,Whitley County Health Department - Environmental Services,Not Available,36.703266,-84.197082,40769,21235
Kentucky,KY,KY-12,Three Rivers District Health Department,Not Available,38.663259,-85.168673,41008,
Kentucky,KY,KY-13,Northern Kentucky Health Department - Environmental Services,Not Available,39.029195,-84.562134,41017,
Kentucky,KY,KY-14,Wedco District Health Environmental Services - Harrison County,Not Available,38.417802,-84.288716,41031,21097
Kentucky,KY,KY-15,Lewis County Environmental Services,Not Available,38.552152,-83.376774,41179,21135
Kentucky,KY,KY-16,Marshall County Environmental Health Services,Not Available,36.856924,-88.334714,42025,21157
Kentucky,KY,KY-17,Barren River Environmental Services - Rodent and Vector Control,Not Available,37.003731,-86.418234,42102,
Louisana,LA,LA-15,Plaquemines,Not Available,29.827451,-90.024702,70037,
Louisana,LA,LA-2,Allen,Not Available,29.9108399,-90.0502014,70053,
Louisana,LA,LA-24,St. Charles Parish Mosquito Control,Not Available,29.962198,-90.464199,70057,
Louisana,LA,LA-18,St. John the Baptist,Not Available,30.075645,-90.567481,70084,
Louisana,LA,LA-16,St. Bernard,Not Available,29.89894,-89.895262,70092,
Louisana,LA,LA-25,"New Orleans Mosquito, Termite, and Rodent Control",Not Available,29.957008,-90.076935,70112,
Louisana,LA,LA-26,Jefferson Parish Department of Environmental Affairs - Mosquito Control,Not Available,29.959763,-90.163314,70121,
Louisana,LA,LA-13,New Orleans,Not Available,30.013437,-90.062798,70122,
Louisana,LA,LA-21,Tangipahoa,Not Available,30.485554,-90.487687,70403,22105
Louisana,LA,LA-20,St. Tammany,Not Available,30.297957,-89.840688,70460,
Louisana,LA,LA-22,Vermilion,Not Available,29.894612,-92.193173,70510,
Louisana,LA,LA-19,St. Mary,Not Available,30.21704,-92.43818,70534,
Louisana,LA,LA-11,Jefferson Davis,Not Available,30.266368,-92.673552,70546,22053
Louisana,LA,LA-1,Acadia,Not Available,30.128785,-92.502668,70559,
Louisana,LA,LA-8,Iberia,Not Available,29.921943,-91.878669,70560,22045
Louisana,LA,LA-5,Calcasieu,Not Available,30.255414,-93.126507,70615,
Louisana,LA,LA-6,Cameron,Not Available,29.836945,-93.057766,70632,
Louisana,LA,LA-9,Iberville,Not Available,30.216866,-91.282778,70764,22047
Louisana,LA,LA-23,West Baton Rouge,Not Available,30.481128,-91.330712,70767,22121
Louisana,LA,LA-3,Ascension,Not Available,30.214554,-90.761904,70774,22005
Louisana,LA,LA-7,East Baton Rouge,Data Available,30.543725,-91.219682,70807,
Louisana,LA,LA-27,Bossier Parish Mosquito Control,Not Available,32.722671,-93.630383,71006,
Louisana,LA,LA-4,Caddo,Not Available,32.595618,-93.859525,71107,22017
Louisana,LA,LA-14,Ouachita,Not Available,32.582209,-92.018358,71203,
Maryland,MD,MD-2,Maryland Department of Agriculture Mosquito Control Hollywood,Not Available,38.352141,-76.567187,20636,
Maryland,MD,MD-5,Calvert County Mosquito Control,Not Available,38.52282,-76.60135,20678,
Maryland,MD,MD-3,Maryland Department of Agriculture Mosquito Control College Park,Not Available,38.989619,-76.945695,20742,
Maryland,MD,MD-6,Baltimore County Environmental Health Mosquito Control Program,Not Available,39.402268,-76.632295,21204,
Maryland,MD,MD-1,Maryland Department of Agriculture Mosquito Control Annapolis,Not Available,38.98775,-76.5528,21401,
Maryland,MD,MD-4,Maryland Department of Agriculture Mosquito Control Salisbury,Not Available,38.3823,-75.639576,21801,
Massachusetts,MA,MA-2,Berkshire County Mosquito Control Project,Not Available,42.448236,-73.273727,1201,
Massachusetts,MA,MA-1,Central Massachussets Mosquito Control Project,Data Available,42.323342,-71.646236,1532,25027
Massachusetts,MA,MA-9,Northeast Mass. Mosquito & Wetlands Management District,Not Available,42.727879,-70.982036,1833,
Massachusetts,MA,MA-8,Norfolk County Mosquito Control District,Data Available,42.18736,-71.195955,2062,
Massachusetts,MA,MA-11,Suffolk County Mosquito Control Project,Not Available,42.255083,-71.12922,2136,25025
Massachusetts,MA,MA-10,Plymouth County Mosquito Control Project,Not Available,41.987196,-70.741942,2364,
Massachusetts,MA,MA-6,East Middlesex Mosquito Control Project,Not Available,42.369542,-71.240513,2453,
Massachusetts,MA,MA-5,Dukes County Mosquito Control Project,Not Available,41.377655,-70.52208,2539,
Massachusetts,MA,MA-7,Nantucket Mosquito Control Project,Not Available,41.291167,-70.092826,2554,
Massachusetts,MA,MA-4,Cape Cod Mosquito Control Project,Not Available,41.704155,-70.231801,2675,
Massachusetts,MA,MA-3,Bristol County Mosquito Control Project,Not Available,41.931653,-71.294503,2703,
Michigan,MI,MI-4,Saginaw County Mosquito Control,Data Available,43.420026,-83.974472,48602,
Michigan,MI,MI-2,County of Midland Mosquito Control,Data Available,43.706126,-84.41616,48657,
Michigan,MI,MI-3,Bay County Mosquito Control,Not Available,43.55706,-83.84968,48708,26017
Michigan,MI,MI-5,Tuscola County Mosquito Control,Data Available,43.484961,-83.389457,48723,
Minnesota,MN,MN-1,Metropolitan Mosquito Control District,Data Available,44.953894,-93.164446,55104,
Mississippi,MS,MS-4,Mississippi Department of Health Vector Control Program,Not Available,32.3000045,-90.1821887,39215,
Mississippi,MS,MS-3,Jackson County Mosquito Control,Not Available,30.4822956,-88.5939515,39564,
Missouri,MO,MO-6,City of Ellisville Mosquito Control,Not Available,38.603678,-90.559295,63011,
Missouri,MO,MO-2,St Louis County Mosquito Control,Not Available,38.644308,-90.328202,63105,29189
Missouri,MO,MO-3,St Charles County Mosquito Control,Not Available,38.858035,-90.463316,63301,
Missouri,MO,MO-7,Clay County Vector Control,Not Available,39.258315,-94.389653,64068,
Missouri,MO,MO-8,Platte County Environmental Health,Not Available,39.359017,-94.793273,64079,
Missouri,MO,MO-9,Kansas City Health Department,Not Available,39.084895,-94.58647,64108,
Missouri,MO,MO-10,Harrison County Environmental Health - Mosquito Control,Not Available,40.261889,-94.036075,64424,
Missouri,MO,MO-11,St. Joseph Property Maintenance - Mosquito Control,Not Available,39.765442,-94.844432,64501,
Missouri,MO,MO-12,Joplin Environmental Health,Not Available,37.106902,-94.497647,64801,
Missouri,MO,MO-13,Gasconade County Environmental Health,Not Available,38.63302,-91.489758,65041,29073
Missouri,MO,MO-1,City of Jefferson Mosquito Control,Not Available,38.495766,-92.134532,65101,29051
Missouri,MO,MO-14,Cole County Environmental Services,Not Available,38.573883,-92.277794,65109,
Missouri,MO,MO-15,Columbia Environmental Health,Not Available,38.884324,-92.398565,65203,
Missouri,MO,MO-16,Randolph County Environmental Services,Not Available,39.413639,-92.39495,65270,29175
Missouri,MO,MO-17,Hickory County Environmental Health,Not Available,37.930666,-93.288163,65668,
Missouri,MO,MO-18,Springfield-Greene County Environmental Health,Not Available,37.20745,-93.354612,65802,
Montana,MT,MT-3,Valley County Weed and Mosquito Control,Not Available,48.13099,-106.800334,59230,
Montana,MT,MT-4,Prairie County Mosquito Control,Not Available,46.890151,-105.502227,59349,30079
Montana,MT,MT-6,Cascade County Mosquito Management,Not Available,47.631766,-111.32887,59404,30013
Montana,MT,MT-9,Northwest Mosquito and Vector Control Association,Not Available,47.319261,-111.298533,59405,
Montana,MT,MT-7,Hill County Mosquito Control District,Not Available,48.689862,-109.78113,59501,30041
Montana,MT,MT-5,Blaine Mosquito Control District,Not Available,48.531584,-109.238565,59523,30005
Montana,MT,MT-1,Helena Valley Mosquito District,Not Available,46.739365,-111.905529,59602,
Montana,MT,MT-2,Butte-Silver Bow Mosquito Control District,Not Available,46.035043,-112.47572,59701,30093
Montana,MT,MT-8,Lolo Mosquito Control,Not Available,46.903957,-113.919267,59802,
Montana,MT,MT-10,Missoula County Weed District,Not Available,46.971063,-114.111212,59808,
Nebraska,NE,NE-2,Southeast District Health Department - Environmental Diseases and Concerns,Not Available,40.370253,-95.864948,68305,
Nebraska,NE,NE-3,Nebraska Department of Health and Human Services,Not Available,40.800004,-96.6721941,68509,
Nebraska,NE,NE-4,Lincoln-Lancaster County Health Department - Environmental Public Health,Not Available,40.806237,-96.635703,68510,
Nebraska,NE,NE-1,University of Nebraska-Lincoln,Not Available,40.792052,-96.842655,68583,
Nebraska,NE,NE-5,Central District Health Department - Mosquito Abatement,Not Available,40.947669,-98.292138,68801,31079
Nebraska,NE,NE-6,Nebraska Mosquito and Vector Control Association,Not Available,40.427061,-99.38895,68949,31337
Nebraska,NE,NE-7,Scotts Bluff County Health Department - Pest Control,Not Available,41.72097,-103.632808,69341,
Nevada,NV,NA,Nye County Abatement Services,Not Available,38.347312,-116.259369,89049,
Nevada,NV,NV-2,Southern Nevada Health District (Clark County),Not Available,36.114842,-115.613219,89127,
Nevada,NV,NV-5,Lyon County Abatement Centre,Not Available,39.227192,-119.475598,89403,32019
Nevada,NV,NA,"Churchill County Mosquito, Vector, and Weed Control",Not Available,39.53771,-118.264165,89406,32001
Nevada,NV,NV-1,Douglas County Mosquito Abatement District,Not Available,39.018863,-119.755643,89423,32005
Nevada,NV,NV-4,Washoe County Mosquito Control,Not Available,39.550957,-119.801071,89512,
Nevada,NV,NV-3,Carson City Mosquito Abatement,Not Available,39.222699,-119.701535,89706,32510
New Hampshire,NH,NH-1,Town of Litchfield Mosquito Control,Not Available,42.846081,-71.468283,3052,
New Jersey,NJ,NJ-2,Essex County Mosquito Control,Data Available,40.858017,-74.229784,7009,
New Jersey,NJ,NJ-22,Union County Mosquito Extermination Commission,Data Available,40.633026,-74.372905,7076,34039
New Jersey,NJ,NJ-18,Hudson County Mosquito Control,Data Available,40.781958,-74.067649,7094,
New Jersey,NJ,NJ-7,Sussex County Mosquito Control,Data Available,41.152758,-74.572348,7419,34037
New Jersey,NJ,NJ-21,Passaic County Mosquito Control,Data Available,40.945855,-74.245077,7470,
New Jersey,NJ,NJ-10,Bergen County Mosquito Control,Data Available,40.947312,-74.070219,7653,
New Jersey,NJ,NJ-13,Monmouth County Mosquito Control,Data Available,40.298625,-74.074178,7724,
New Jersey,NJ,NJ-26,Sussex County Office of Mosquito Control,Not Available,41.056547,-74.819113,7860,
New Jersey,NJ,NJ-23,Warren County Mosquito Extermination Commission,Data Available,40.807625,-74.9576,7863,
New Jersey,NJ,NJ-28,Morris County Mosquito Extermination Commission,Not Available,40.846026,-74.482314,7950,34027
New Jersey,NJ,NJ-20,Morris County Mosquito Extermination Commission,Data Available,40.78062,-74.432741,7963,34027
New Jersey,NJ,NJ-12,Ocean County Mosquito Extermination,Data Available,39.767727,-74.312588,8005,
New Jersey,NJ,NJ-6,Camden County Mosquito Control,Data Available,39.806194,-75.000151,8021,
New Jersey,NJ,NJ-16,Burlington County Mosquito Control,Data Available,39.948992,-74.900247,8054,
New Jersey,NJ,NJ-4,Salem County Mosquito Control,Data Available,39.542408,-75.431684,8079,34033
New Jersey,NJ,NJ-11,Gloucester County Mosquito Control,Data Available,39.826854,-75.126663,8096,
New Jersey,NJ,NJ-30,Salem County Mosquito Extermination Commission,Not Available,39.639535,-75.329849,8098,
New Jersey,NJ,NJ-3,Cape May County Mosquito Control,Data Available,39.12175,-74.83443,8210,
New Jersey,NJ,NJ-15,Atlantic County Office of Mosquito Control,Data Available,39.362651,-74.530947,8225,
New Jersey,NJ,NJ-17,Cumberland County Mosquito Control Division,Data Available,39.438613,-75.260646,8302,34011
New Jersey,NJ,NJ-1,Mercer County Mosquito Control,Data Available,40.284308,-74.717976,8650,
New Jersey,NJ,NJ-19,Hunterdon County,Data Available,40.525105,-74.865254,8822,34019
New Jersey,NJ,NJ-5,Middlesex Mosquito Control,Data Available,40.513105,-74.344075,8837,
New Mexico,NM,NM-5,City of Belen Mosquito Control,Not Available,34.611886,-106.652175,87002,35061
New Mexico,NM,NM-6,City of Los Lunas Mosquito Control,Not Available,34.691701,-107.017993,87031,
New Mexico,NM,NM-3,Valencia County Vector Control,Not Available,34.691701,-107.017993,87031,
New Mexico,NM,NM-7,Albuquerque Environmental Health Department - Vector-Borne & Zoonotic Disease Division,Not Available,35.081357,-106.646575,87102,
New Mexico,NM,NM-1,Bernalillo County Mosquito Control,Not Available,35.081357,-106.646575,87102,
New Mexico,NM,NM-8,San Juan County Public Works - Vector Control,Not Available,36.868277,-107.882308,87410,
New Mexico,NM,NM-9,City of Espanola Public Works,Not Available,35.993867,-106.088977,87532,35039
New Mexico,NM,NM-4,Socorro County Vector Control,Not Available,34.127211,-106.826187,87801,
New Mexico,NM,NM-10,Dona Ana County Vector Control Division,Not Available,32.441109,-106.921281,88007,
New Mexico,NM,NM-11,Silver City Mosquito and Vector Management,Not Available,33.0200045,-108.2821941,88062,
New Mexico,NM,NM-12,City of Clovis Code Compliance/Vector Control,Not Available,34.499384,-103.275272,88101,35009
New Mexico,NM,NM-13,Chaves County Vector Control,Not Available,33.309413,-104.092418,88203,
New Mexico,NM,NM-2,Eddy County Vector Control,Not Available,32.311474,-104.431928,88220,
New Mexico,NM,NM-14,Lea County Road Department - Vector Control,Not Available,32.703782,-103.485066,88240,
New Mexico,NM,NM-15,City of Alamogordo Public Works - Mosquito Control,Not Available,32.641272,-106.072883,88310,
New York,NY,NY-7,New York City Department of Health - Vector Surveillance and Control,Not Available,40.765823,-73.987169,10019,
New York,NY,NY-2,Rockland County Mosquito Control,Not Available,41.157191,-73.993416,10956,
New York,NY,NY-1,"Nassau County, Long Island Mosquito Control",Not Available,40.755182,-73.574338,11590,
New York,NY,NY-5,Suffolk County Mosquito Control,Not Available,40.831296,-72.923154,11980,
New York,NY,NY-8,Rensselaer County Environmental Health - Public Health Nuisances,Not Available,42.748588,-73.599536,12180,
New York,NY,NY-9,Albany County Environmental Health Services,Not Available,42.635575,-73.759658,12202,
New York,NY,NY-10,New York State Department of Health,Not Available,42.6500039,-73.7621887,12220,
New York,NY,NY-11,Schenectady County Environmental Health,Not Available,42.82098,-73.91967,12308,
New York,NY,NY-12,Greene County Health Department - Environmental Issues,Not Available,42.232019,-73.913867,12414,
New York,NY,NY-13,Duchess County Environmental Health Assessment Program,Not Available,41.701921,-73.911519,12601,
New York,NY,NY-14,Clinton County Health Department - Environmental Unit,Not Available,44.70419,-73.471392,12901,
New York,NY,NY-15,Madison County Environmental Health - Vector Surveillance and Control Program,Not Available,43.080092,-75.710999,13163,
New York,NY,NY-3,Onondaga County Mosquito Control,Data Available,43.050817,-76.177473,13204,
New York,NY,NY-16,Lewis County Public Health - Preventative Health Services,Not Available,43.757731,-75.532709,13367,36049
New York,NY,NY-17,Broome County Environmental Health,Not Available,42.170436,-75.943434,13905,
New York,NY,NY-18,Erie County Environmental Health,Not Available,42.93964,-78.840689,14214,
New York,NY,NY-4,Town of Amherstx,Not Available,42.984481,-78.722761,14221,
New York,NY,NY-19,Orleans County Environmental Health - Vermin (Pest) Control,Not Available,43.235972,-78.216477,14411,
New York,NY,NY-6,Monroe County Mosquito Control,Not Available,43.128291,-77.605805,14620,
New York,NY,NY-20,Cattaraugus County Environmental Health,Not Available,42.077027,-78.418429,14760,
North Carolina,NC,NC-13,Davie County Environmental Health,Not Available,35.922771,-80.580443,27028,37059
North Carolina,NC,NC-7,Forsyth County Mosquito Control,Not Available,36.11085,-80.20043,27101,
North Carolina,NC,NC-14,Alamance County Environmental Health Section - Vector Control,Not Available,36.190945,-79.380185,27217,37001
North Carolina,NC,NC-12,Orange County Mosquito Control,Not Available,36.090195,-79.086929,27278,37135
North Carolina,NC,NC-15,Davidson County Environmental Health - Pest Management Program,Not Available,35.738325,-80.207547,27292,37057
North Carolina,NC,NC-16,Rockingham County Environmental Health Services,Not Available,36.3993543,-79.7623687,27375,
North Carolina,NC,NC-17,Wake County Environmental Services - Mosquito Prevention & Enforcement,Not Available,35.773632,-78.634457,27601,
North Carolina,NC,NC-4,Durham County Mosquito Control,Not Available,35.99924,-78.897944,27701,
North Carolina,NC,NC-18,Pitt County Environmental Health - Mosquito Management,Not Available,35.657296,-77.379187,27834,37147
North Carolina,NC,NC-19,Town of Sharpsburg Mosquito Control,Not Available,35.86688,-77.834929,27878,
North Carolina,NC,NC-20,Albemarle Regional Health Services,Not Available,36.288605,-76.268734,27909,37139
North Carolina,NC,NC-9,Dare County Mosquito Control,Not Available,35.910154,-75.677781,27954,
North Carolina,NC,NC-21,Rowan County Environmental Health - Mosquito & Vector Control,Not Available,35.706685,-80.464788,28144,
North Carolina,NC,NC-6,Mecklenburg County Mosquito Control,Not Available,35.227271,-80.844194,28202,
North Carolina,NC,NC-22,City of Clinton Public Works - Pest Control,Not Available,35.0000044,-78.3221886,28329,
North Carolina,NC,NC-23,Duplin County Environmental Health Services - Vector Control Activities,Not Available,34.981159,-77.927059,28349,
North Carolina,NC,NC-11,Scotland County Mosquito Control,Not Available,34.767842,-79.45173,28352,37165
North Carolina,NC,NC-24,Town of Salemburg Public Works - Mosquito Abatement,Not Available,35.050008,-78.47723,28385,
North Carolina,NC,NC-5,New Hanover County Mosquito Control,Not Available,34.221692,-77.880633,28403,
North Carolina,NC,NC-3,Brunswick County Mosquito Control,Data Available,34.02637,-78.189312,28422,
North Carolina,NC,NC-8,Pender County Mosquito Control,Not Available,34.562055,-77.896281,28425,
North Carolina,NC,NC-25,Pamlico County Environmental Health Services,Not Available,35.184068,-76.699387,28515,
North Carolina,NC,NC-2,Onslow County Mosquito Control,Not Available,34.754982,-77.503794,28540,
North Carolina,NC,NC-26,Carteret County Environmental Health Services - Mosquito Control,Not Available,34.73896,-76.749232,28557,
North Carolina,NC,NC-27,Craven County Environmental Health - Vector Management,Not Available,35.0500044,-77.0950189,28561,
North Carolina,NC,NC-28,Town of Newport Public Works - Mosquito Control,Not Available,34.781487,-76.857497,28570,
North Carolina,NC,NC-29,Jones County Environmental Health Services,Not Available,35.076923,-77.412405,28585,
North Carolina,NC,NC-30,Watauga County Health Department - Mosquito and Vector Control,Not Available,36.218005,-81.652138,28607,37189
North Carolina,NC,NC-31,Alleghany County Health Department - Mosquito and Vector Control,Not Available,36.503161,-81.13503,28675,
North Carolina,NC,NC-32,Ashe County Health Department - Mosquito and Vector Control,Not Available,36.366337,-81.468016,28694,37009
North Carolina,NC,NC-33,Buncombe County Environmental Health,Not Available,35.594348,-82.557917,28801,
North Dakota,ND,ND-2,Cass County Mosquito Control,Data Available,46.8625,-96.924088,58078,
North Dakota,ND,ND-6,City of Fargo Environmental Complaints and Nuisances,Not Available,46.927094,-96.834703,58102,
North Dakota,ND,ND-1,Grand Forks Mosquito Control,Data Available,47.866638,-97.141144,58201,
North Dakota,ND,ND-5,Central Valley Environmental Health District - Insect/Vermin Control,Not Available,46.884369,-98.766655,58401,
North Dakota,ND,ND-3,Bismarck Mosquito Control,Not Available,46.820212,-100.780917,58506,
North Dakota,ND,ND-4,"North Dakota, Deparment of Health",Data Available,47.40556,-100.363102,58463,38083
North Dakota,ND,ND-4,"North Dakota, Deparment of Health: Williams county",Data Available,48.385343,-103.397786,58801,
North Dakota,ND,ND-4,"North Dakota, Deparment of Health: Mountrail county",Data Available,48.143732,-102.252484,58763,38061
North Dakota,ND,ND-4,"North Dakota, Deparment of Health: Ward county",Data Available,48.263883,-101.455495,58702,
North Dakota,ND,ND-4,"North Dakota, Deparment of Health: Burke county",Data Available,48.789314,-102.559948,58737,
North Dakota,ND,ND-4,"North Dakota, Deparment of Health: McClean county",Data Available,47.680968,-101.419579,58565,
North Dakota,ND,ND-4,"North Dakota, Deparment of Health: Renville county",Data Available,48.715001,-101.809977,58725,38075
North Dakota,ND,ND-4,"North Dakota, Deparment of Health: Benson county",Data Available,48.055987,-99.313369,58379,
North Dakota,ND,ND-4,"North Dakota, Deparment of Health: Langdon county",Data Available,48.762296,-98.37437,58249,
North Dakota,ND,ND-4,"North Dakota, Deparment of Health: Eddy county",Data Available,47.616374,-98.913084,58356,38027
North Dakota,ND,ND-4,"North Dakota, Deparment of Health: Pierce county",Data Available,48.150906,-100.047068,58313,
North Dakota,ND,ND-4,"North Dakota, Deparment of Health: Rolette county",Data Available,48.791615,-99.903938,58366,38079
North Dakota,ND,ND-4,"North Dakota, Deparment of Health: Towner county",Data Available,48.77619,-99.316936,58324,38095
North Dakota,ND,ND-4,"North Dakota, Deparment of Health: Grand Forks county",Data Available,47.989172,-97.402782,58202,
North Dakota,ND,ND-4,"North Dakota, Deparment of Health: Pembina county",Data Available,48.791005,-97.586465,58271,
North Dakota,ND,ND-4,"North Dakota, Deparment of Health: Walsh county",Data Available,48.385563,-97.795249,58237,
North Dakota,ND,ND-4,"North Dakota, Deparment of Health: Ransom county",Data Available,46.43912,-97.7096,58033,38073
North Dakota,ND,ND-4,"North Dakota, Deparment of Health: Steele county",Data Available,47.452539,-97.680503,58046,38091
North Dakota,ND,ND-4,"North Dakota, Deparment of Health: Trail county",Data Available,47.455551,-97.177696,58045,38097
North Dakota,ND,ND-4,"North Dakota, Deparment of Health: Stutsman county",Data Available,47.046461,-98.877803,58402,
North Dakota,ND,ND-4,"North Dakota, Deparment of Health: Dickey county",Data Available,46.158599,-98.465068,58436,
North Dakota,ND,ND-4,"North Dakota, Deparment of Health: Foster county",Data Available,47.452563,-98.904802,58421,38031
North Dakota,ND,ND-4,"North Dakota, Deparment of Health: Logan county",Data Available,46.463936,-99.486656,58440,38047
North Dakota,ND,ND-4,"North Dakota, Deparment of Health: McIntosh county",Data Available,46.124612,-99.400409,58413,38051
North Dakota,ND,ND-4,"North Dakota, Deparment of Health: Wells county",Data Available,47.641636,-99.614186,58418,38103
North Dakota,ND,ND-4,"North Dakota, Deparment of Health: Burleigh county",Data Available,46.990494,-100.457165,58505,
North Dakota,ND,ND-4,"North Dakota, Deparment of Health: Emmons county",Data Available,46.280155,-100.262024,58544,
North Dakota,ND,ND-4,"North Dakota, Deparment of Health: Grant county",Data Available,46.347748,-101.623541,58529,38037
North Dakota,ND,ND-4,"North Dakota, Deparment of Health: Kidder county",Data Available,46.974377,-99.802873,58482,
North Dakota,ND,ND-4,"North Dakota, Deparment of Health: Mercer county",Data Available,47.247933,-101.822211,58580,38057
North Dakota,ND,ND-4,"North Dakota, Deparment of Health: Morton county",Data Available,46.720789,-101.241423,58563,38059
North Dakota,ND,ND-4,"North Dakota, Deparment of Health: Oliver county",Data Available,47.101895,-101.338226,58530,38065
North Dakota,ND,ND-4,"North Dakota, Deparment of Health: Sioux county",Data Available,46.091748,-101.074665,58528,
North Dakota,ND,ND-4,"North Dakota, Deparment of Health: Stark county",Data Available,46.809889,-102.651022,58602,
North Dakota,ND,ND-4,"North Dakota, Deparment of Health: Billings county",Data Available,47.03613,-103.380358,58627,
North Dakota,ND,ND-4,"North Dakota, Deparment of Health: Dunn county",Data Available,47.383773,-102.613971,58626,
North Dakota,ND,ND-4,"North Dakota, Deparment of Health: Golden Valley county",Data Available,46.902237,-103.893769,58541,
North Dakota,ND,ND-4,"North Dakota, Deparment of Health: McLean county",Data Available,47.686136,-101.249737,58531,
North Dakota,ND,ND-4,"North Dakota, Deparment of Health: Bottineau county",Data Available,48.812411,-100.791047,58318,
North Dakota,ND,ND-4,"North Dakota, Deparment of Health: McHenry county",Data Available,48.297323,-100.601422,58788,38049
North Dakota,ND,ND-4,"North Dakota, Deparment of Health: Divide county",Data Available,48.83682,-103.498181,58795,38023
North Dakota,ND,ND-4,"North Dakota, Deparment of Health: McKenzie county",Data Available,47.77804,-103.384713,58854,38053
North Dakota,ND,ND-4,"North Dakota, Deparment of Health: Sheridan county",Data Available,47.606537,-100.353165,58758,38083
North Dakota,ND,ND-4,"North Dakota, Deparment of Health: Ramsey county",Data Available,48.317818,-98.685938,58325,38071
North Dakota,ND,ND-4,"North Dakota, Deparment of Health: Griggs county",Data Available,47.461735,-98.229061,58452,
North Dakota,ND,ND-4,"North Dakota, Deparment of Health: Nelson county",Data Available,47.92463,-98.199896,58272,
North Dakota,ND,ND-4,"North Dakota, Deparment of Health: Cass county",Data Available,46.935153,-97.260086,58105,
North Dakota,ND,ND-4,"North Dakota, Deparment of Health: Richland county",Data Available,46.175609,-96.852532,58076,
North Dakota,ND,ND-4,"North Dakota, Deparment of Health: Barnes county",Data Available,46.940803,-98.072139,58065,
North Dakota,ND,ND-4,"North Dakota, Deparment of Health: Adams county",Data Available,46.098207,-102.530003,58639,
North Dakota,ND,ND-4,"North Dakota, Deparment of Health: Bowman county",Data Available,46.1324,-103.510043,58623,38011
North Dakota,ND,ND-4,"North Dakota, Deparment of Health: LaMoure county",Data Available,46.489361,-98.505477,58415,38045
North Dakota,ND,ND-4,"North Dakota, Deparment of Health: Sargent county",Data Available,46.113766,-97.620987,58032,
North Dakota,ND,ND-4,"North Dakota, Deparment of Health: Slope county",Data Available,46.436586,-103.413985,58620,38087
North Dakota,ND,ND-4,"North Dakota, Deparment of Health: Hettinger county",Data Available,46.441399,-102.474038,58646,38041
North Dakota,ND,ND-4,"North Dakota, Deparment of Health: Cavalier county",Data Available,48.812071,-98.458572,58260,38019
North Dakota,ND,ND-4,"North Dakota, Deparment of Health: Traill county",Data Available,47.449052,-97.14611,58035,38097
Ohio,OH,OH-8,Franklin County Mosquito Control,Data Available,40.110681,-83.129038,43017,39049
Ohio,OH,OH-10,Fairfield County Mosquito Control,Not Available,39.896382,-82.541954,43046,39045
Ohio,OH,OH-11,Knox County Environmental Health Vector Control Program,Not Available,40.373976,-82.492721,43050,39083
Ohio,OH,OH-12,Licking County Environmental Health - Mosquito Control,Not Available,40.119897,-82.377784,43055,
Ohio,OH,OH-13,Ohio Mosquito Control Association,Not Available,39.956185,-82.784665,43068,39049
Ohio,OH,OH-7,City of Westerville Mosquito Control,Not Available,40.110443,-82.890646,43081,39049
Ohio,OH,OH-9,Baltimore Mosquito Control,Not Available,39.86676,-82.612369,43105,39045
Ohio,OH,OH-14,Hocking County Environmental Health - Vector Control,Not Available,39.518345,-82.4141,43138,39073
Ohio,OH,OH-1,City of Columbus Mosquito and Insect Control,Not Available,39.966856,-83.01296,43215,
Ohio,OH,OH-4,Upper Arlington Mosquito Control,Not Available,39.966129,-83.125346,43228,
Ohio,OH,OH-15,Wyandot County Environmental Health - Mosquito Program,Not Available,40.82548,-83.303252,43351,
Ohio,OH,OH-16,"Henry County Environmental Health - Mosquitoes, Ticks and other Insects",Not Available,41.390884,-84.127337,43545,39069
Ohio,OH,OH-2,Toledo Area Sanitary District,Data Available,41.715797,-83.551056,43612,
Ohio,OH,OH-17,ZanesvilleMuskingum County Environmental Health - Mosquito Spraying,Not Available,39.96922,-81.991033,43701,39119
Ohio,OH,OH-18,Perry County Environmental Health - Mosquito Program,Not Available,39.71333,-82.180619,43764,
Ohio,OH,OH-19,Lorain County Environmental Health - Mosquito Surveillance & Control,Not Available,41.363571,-82.13786,44035,
Ohio,OH,OH-20,Lake County Mosquito Control Program,Not Available,41.697563,-81.20974,44077,39085
Ohio,OH,OH-21,Cuyahoga County Board of Health - Vector Control,Not Available,41.376642,-81.787317,44130,
Ohio,OH,OH-3,City of Barberton Mosquito Abatement District,Not Available,41.020888,-81.628652,44203,39153
Ohio,OH,OH-22,Summit County Environmental Health - Mosquito Control,Not Available,41.176261,-81.436523,44224,39153
Ohio,OH,OH-6,City of Kent Mosquito Control,Not Available,41.132323,-81.332781,44240,39133
Ohio,OH,OH-23,Columbiana County Environmental Services - Rabies & Vector Control,Not Available,40.745661,-80.765924,44432,
Ohio,OH,OH-24,Tuscarawas County Environmental Health - Mosquito and Rodent Abatement,Not Available,40.546033,-81.482958,44622,
Ohio,OH,OH-25,Stark County Environmental Health - Mosquito Program,Not Available,40.847623,-81.451327,44718,
Ohio,OH,OH-26,Ashland County Environmental Healh,Not Available,40.872668,-82.317033,44805,39005
Ohio,OH,OH-27,Warren County Environmental Health - Service Programs (Lebanon),Not Available,39.444049,-84.214131,45036,
Ohio,OH,OH-28,Clermont County Vector Borne Disease Control,Not Available,39.097086,-84.13448,45103,
Ohio,OH,OH-29,Hamilton County Environmental Health,Not Available,39.127376,-84.513064,45219,
Ohio,OH,OH-30,City of Cincinnati - Environmental Services,Not Available,39.152745,-84.486802,45229,
Ohio,OH,OH-5,Greene County Public Health,Not Available,39.669076,-83.913955,45385,39057
Ohio,OH,OH-31,Dayton-Montgomery County Environmental Health,Not Available,39.7450765,-84.2001499,45422,
Ohio,OH,OH-32,Jackson County Environmental Health - Rodent Control,Not Available,39.019728,-82.656314,45640,39079
Ohio,OH,OH-33,Allen County Environmental Division - Nuisance Complaints,Not Available,40.772863,-84.034098,45801,39003
Ohio,OH,OH-34,City of Findlay Environmental Health Division - Mosquito Control Program,Not Available,41.025371,-83.651983,45840,
Oklahoma,OK,OK-3,Canadian County Health Department - Nuisance Complaints,Not Available,35.509391,-97.959769,73036,
Oklahoma,OK,OK-1,City of Norman Mosquito Control,Not Available,35.249662,-97.462408,73070,
Oklahoma,OK,OK-4,Oklahoma City Health Department - Mosquito Control,Not Available,35.520032,-97.501254,73105,
Oklahoma,OK,OK-5,City of Bartlesville Utility Services - Mosquito Spraying,Not Available,36.728272,-96.067573,74003,40113
Oklahoma,OK,OK-6,Rogers County Environmental Health,Not Available,36.390927,-95.587689,74017,
Oklahoma,OK,OK-7,Osage County Environmental Health,Not Available,36.795302,-96.330859,74056,
Oklahoma,OK,OK-8,Creek County Environmental Health - Vector Control,Not Available,35.993142,-96.164294,74066,40037
Oklahoma,OK,OK-2,Tulsa Health Department,Not Available,36.109821,-95.798024,74134,
Oregon,OR,OR-1,Clackamas County Vector Control,Data Available,45.320277,-122.536467,97045,
Oregon,OR,OR-2,Columbia Drainage Vector Control District,Not Available,45.875701,-122.949006,97051,
Oregon,OR,OR-11,Beaverton County Vector Control,Not Available,45.134191,-122.826487,97076,
Oregon,OR,OR-12,Washington County Vector Control,Not Available,45.569079,-122.946701,97124,41067
Oregon,OR,OR-8,Multnomah County Vector Control,Not Available,45.603549,-122.737905,97203,
Oregon,OR,OR-6,Marion County Vector Control,Not Available,44.842904,-123.094751,97309,
Oregon,OR,OR-13,Lincoln County Environmental Health - Mosquito Control,Not Available,44.666397,-124.010783,97365,
Oregon,OR,OR-14,Lane County Environmental Health,Not Available,44.067988,-123.080181,97401,
Oregon,OR,OR-4,Jackson County Vector Control,Not Available,42.414574,-122.954536,97502,
Oregon,OR,OR-5,Klamath Vector Control District,Not Available,42.152018,-121.683526,97603,
Oregon,OR,OR-15,Chiloquin Vector Control District,Not Available,43.003246,-121.635689,97624,
Oregon,OR,OR-3,Four Rivers Vector Control,Not Available,43.826223,-121.492124,97707,
Oregon,OR,OR-16,Jefferson County Environmental Health,Not Available,44.657725,-121.054464,97741,
Oregon,OR,OR-17,Crook County Vector Control District,Not Available,44.15964,-120.585505,97754,
Oregon,OR,OR-18,Baker County Health Department,Not Available,44.827571,-117.757799,97814,41001
Oregon,OR,OR-7,North Morrow Vector Control,Not Available,45.785367,-119.890171,97818,
Oregon,OR,OR-9,West Umatilla Vector Control District,Not Available,45.853004,-119.287265,97838,41059
Oregon,OR,OR-10,Union County Vector Control,Not Available,45.303538,-118.113278,97850,
Oregon,OR,OR-19,Malheur County Environmental Health,Not Available,44.037114,-117.351072,97918,
Pennsylvania,PA,PA-8,Beaver County Mosquito Surveillance and Control,Not Available,40.697912,-80.365277,15009,
Pennsylvania,PA,PA-9,Allegheny County Housing and Community Environment Department - Vector Control,Not Available,40.47441,-79.950968,15201,
Pennsylvania,PA,PA-10,Armstrong County Mosquito Surveillance and Control,Not Available,40.447691,-79.993445,15222,
Pennsylvania,PA,PA-11,Fayette County Mosquito Surveillance and Control,Not Available,39.899926,-79.745662,15401,
Pennsylvania,PA,PA-12,Westmoreland County Mosquito Surveillance and Control,Not Available,40.314981,-79.534803,15601,
Pennsylvania,PA,PA-6,Indiana County Vector Control,Not Available,40.628381,-79.150041,15701,
Pennsylvania,PA,PA-2,Cambria County Vector Control,Not Available,40.328742,-78.914292,15901,
Pennsylvania,PA,PA-13,Mercer County Rodent Control Program,Not Available,41.228489,-80.417588,16148,
Pennsylvania,PA,PA-14,Clarion County Mosquito Surveillance and Control,Not Available,41.630953,-80.156056,16335,
Pennsylvania,PA,PA-15,Crawford County Mosquito Surveillance and Control,Not Available,41.630953,-80.156056,16335,
Pennsylvania,PA,PA-16,Elk County Mosquito Surveillance and Control,Not Available,41.630953,-80.156056,16335,
Pennsylvania,PA,PA-17,Venago County Mosquito Surveillance and Control,Not Available,41.630953,-80.156056,16335,
Pennsylvania,PA,PA-18,Forest County Mosquito Surveillance and Control,Not Available,41.630953,-80.156056,16335,
Pennsylvania,PA,PA-19,Warren County Nuisance Wildlife and Animal Control,Not Available,41.630953,-80.156056,16335,
Pennsylvania,PA,PA-20,McKean County Mosquito Surveillance and Control,Not Available,41.630953,-80.156056,16335,
Pennsylvania,PA,PA-21,Erie County Mosquito Surveillance and Control,Not Available,42.120958,-80.089762,16501,
Pennsylvania,PA,PA-22,Blair County Mosquito Surveillance and Control,Not Available,40.434448,-78.331,16648,
Pennsylvania,PA,PA-23,Centre County Mosquito Surveillance and Control,Not Available,40.939052,-77.772647,16823,
Pennsylvania,PA,PA-3,Cumberland County Vector Control,Not Available,40.242686,-77.197284,17013,
Pennsylvania,PA,PA-4,Dauphin County WNV Program,Not Available,40.422061,-76.826124,17018,
Pennsylvania,PA,PA-24,Lebanon County West Nile Virus Program,Not Available,40.294817,-76.424823,17042,
Pennsylvania,PA,PA-25,Bedford County Mosquito Surveillance and Control,Not Available,40.315813,-76.886436,17110,
Pennsylvania,PA,PA-26,Somerset County Mosquito Surveillance and Control,Not Available,40.315813,-76.886436,17110,
Pennsylvania,PA,PA-27,Mifflin County Mosquito Surveillance and Control,Not Available,40.315813,-76.886436,17110,
Pennsylvania,PA,PA-28,Greene County Mosquito Surveillance and Control,Not Available,40.315813,-76.886436,17110,
Pennsylvania,PA,PA-29,Washington County Mosquito Surveillance and Control,Not Available,40.315813,-76.886436,17110,
Pennsylvania,PA,PA-30,Union County Mosquito Surveillance and Control,Not Available,40.315813,-76.886436,17110,
Pennsylvania,PA,PA-31,Fulton County Mosquito Surveillance and Control,Not Available,40.315813,-76.886436,17110,
Pennsylvania,PA,PA-32,Juniata County Mosquito Surveillance and Control,Not Available,40.315813,-76.886436,17110,
Pennsylvania,PA,PA-33,Snyder County Mosquito Surveillance and Control,Not Available,40.315813,-76.886436,17110,
Pennsylvania,PA,PA-34,Huntingdon County Mosquito Surveillance and Control,Not Available,40.315813,-76.886436,17110,
Pennsylvania,PA,PA-35,Perry County Mosquito Surveillance and Control,Not Available,40.315813,-76.886436,17110,
Pennsylvania,PA,PA-36,Northumberland County Mosquito Surveillance and Control,Not Available,40.315813,-76.886436,17110,
Pennsylvania,PA,PA-37,Franklin County Mosquito Surveillance and Control,Not Available,39.961056,-77.656165,17201,
Pennsylvania,PA,PA-38,Adams County Conservation District,Not Available,39.826258,-77.227606,17325,
Pennsylvania,PA,PA-39,York County Mosquito Surveillance and Control,Not Available,39.959462,-76.733457,17401,
Pennsylvania,PA,PA-40,Mid-Atlantic Mosquito Control Association,Not Available,40.014709,-76.640873,17406,
Pennsylvania,PA,PA-41,Bradford County Mosquito Surveillance and Control,Not Available,41.345045,-76.857256,17701,42015
Pennsylvania,PA,PA-42,Tioga County Mosquito Surveillance and Control,Not Available,41.345045,-76.857256,17701,42117
Pennsylvania,PA,PA-43,Clinton County Mosquito Surveillance and Control,Not Available,41.345045,-76.857256,17701,42035
Pennsylvania,PA,PA-44,Columbia County Mosquito Surveillance and Control,Not Available,41.345045,-76.857256,17701,42037
Pennsylvania,PA,PA-45,Potter County Mosquito Surveillance and Control,Not Available,41.345045,-76.857256,17701,42105
Pennsylvania,PA,PA-46,Cameron County Mosquito Surveillance and Control,Not Available,41.345045,-76.857256,17701,42023
Pennsylvania,PA,PA-47,Sullivan County Mosquito Surveillance and Control,Not Available,41.345045,-76.857256,17701,42113
Pennsylvania,PA,PA-48,Clearfield County Mosquito Surveillance and Control,Not Available,41.345045,-76.857256,17701,42033
Pennsylvania,PA,PA-49,Lycoming County Mosquito Surveillance and Control,Not Available,41.345045,-76.857256,17701,42081
Pennsylvania,PA,PA-50,Montour County Mosquito Surveillance and Control,Not Available,41.345045,-76.857256,17701,42093
Pennsylvania,PA,PA-51,Schuykill County Mosquito Surveillance and Control,Not Available,40.659951,-75.387306,18017,42107
Pennsylvania,PA,PA-52,Susquehanna County Mosquito Surveillance and Control,Not Available,40.659951,-75.387306,18017,42115
Pennsylvania,PA,PA-53,Wayne County Mosquito Surveillance and Control,Not Available,40.659951,-75.387306,18017,42127
Pennsylvania,PA,PA-54,Carbon County Mosquito Surveillance and Control,Not Available,40.659951,-75.387306,18017,42025
Pennsylvania,PA,PA-55,Pike County Mosquito Surveillance and Control,Not Available,40.659951,-75.387306,18017,42103
Pennsylvania,PA,PA-56,Wyoming County Mosquito Surveillance and Control,Not Available,40.659951,-75.387306,18017,42131
Pennsylvania,PA,PA-57,Northampton County Mosquito Surveillance and Control,Not Available,40.659951,-75.387306,18017,42095
Pennsylvania,PA,PA-58,Northampton County Public Works - Vector Control Division,Not Available,40.757008,-75.315964,18064,
Pennsylvania,PA,PA-60,Monroe County Vector Control,Not Available,40.967382,-75.287972,18360,
Pennsylvania,PA,PA-61,Bucks County Bureau of Environmental Health - WNV Control Program,Not Available,40.306267,-75.147144,18901,
Pennsylvania,PA,PA-5,Delaware County Vector Control,Not Available,39.92046,-75.416182,19063,
Pennsylvania,PA,PA-62,Philadelphia Environmental Health Services - Mosquito Control,Not Available,40.012177,-75.145495,19140,
Pennsylvania,PA,PA-63,Chester County Mosquito Surveillance and Control,Not Available,39.987186,-75.603156,19380,
Pennsylvania,PA,PA-7,Montgomery County Vector Control,Not Available,40.148673,-75.375506,19404,
Pennsylvania,PA,PA-64,Berks County West Nile Virus Control Program,Not Available,40.425103,-75.992623,19533,
Rhode Island,RI,RI-1,Rhode Island Department of Health Division of Infectious Disease Epidemiology,Not Available,41.839825,-71.436794,2908,
South Carolina,SC,SC-8,Bamberg County,Not Available,33.241221,-81.023815,29003,
South Carolina,SC,SC-48,City of Batesburg-Leesville,Not Available,33.869101,-81.551078,29006,45063
South Carolina,SC,SC-47,City of Bishopsville,Not Available,34.223091,-80.27265,29010,45061
South Carolina,SC,SC-57,City of Holly Hill,Not Available,33.33003,-80.418508,29059,45075
South Carolina,SC,SC-21,City of Manning,Not Available,33.641983,-80.188481,29102,45027
South Carolina,SC,SC-68,Newberry County Environmental Health Services - Vector Control,Not Available,34.305524,-81.627342,29108,
South Carolina,SC,SC-53,City of Newberry,Not Available,34.305524,-81.627342,29108,
South Carolina,SC,SC-69,Orangeburg County Environmental Health Services,Not Available,33.477386,-80.849144,29115,
South Carolina,SC,SC-58,Orangeburg County Mosquito Control,Not Available,33.477386,-80.849144,29115,
South Carolina,SC,SC-15,Calhoun County Mosquito Control,Not Available,33.701219,-80.757171,29135,45017
South Carolina,SC,SC-70,Saluda County Environmental Health Services - Vector Complaints,Not Available,34.042392,-81.776152,29138,45081
South Carolina,SC,SC-64,Town of Saluda,Not Available,34.042392,-81.776152,29138,45081
South Carolina,SC,SC-22,Town of Summerton,Not Available,33.534198,-80.337458,29148,
South Carolina,SC,SC-66,Sumter County Vector Control,Not Available,33.874774,-80.354069,29150,
South Carolina,SC,SC-3,Town of Wagener/Perry,Not Available,33.662168,-81.416471,29164,
South Carolina,SC,SC-54,Town of Whitmire,Not Available,34.493359,-81.606734,29178,45071
South Carolina,SC,SC-71,Fairfield County Environmental Health Services - Vector Control,Not Available,34.366465,-81.093684,29180,45039
South Carolina,SC,SC-61,City of Columbia,Not Available,33.982484,-81.028098,29201,
South Carolina,SC,SC-63,Richland County Vector Control,Not Available,34.101723,-81.042085,29203,
South Carolina,SC,SC-72,Richland County Environmental Health Services - Vector Control,Not Available,34.029148,-81.002526,29204,
South Carolina,SC,SC-45,City of Clinton,Not Available,34.465141,-81.849816,29325,
South Carolina,SC,SC-18,City of Gaffney,Not Available,35.11191,-81.713162,29341,
South Carolina,SC,SC-73,Cherokee County Environmental Health Services - Vector Complaints,Not Available,35.0731744,-81.6535187,29342,
South Carolina,SC,SC-65,Town of Lyman,Not Available,34.980991,-82.171853,29365,
South Carolina,SC,SC-17,Charleston County Mosquito Control,Not Available,32.856252,-79.981994,29405,
South Carolina,SC,SC-13,City of Hanahan,Not Available,32.93271,-80.002982,29410,45015
South Carolina,SC,SC-32,Georgetown County Mosquito Control,Not Available,33.38111,-79.32976,29440,45043
South Carolina,SC,SC-12,City of Goose Creek,Not Available,32.997548,-79.966641,29445,
South Carolina,SC,SC-16,Kiawah Island Community Association,Not Available,32.624718,-80.040587,29455,
South Carolina,SC,SC-14,Berkeley County Mosquito Abatement,Not Available,33.159784,-80.007539,29461,
South Carolina,SC,SC-28,Dorchester County,Not Available,33.163169,-80.56521,29477,45035
South Carolina,SC,SC-23,Colleton County,Not Available,32.906763,-80.672836,29488,
South Carolina,SC,SC-31,City of Florence,Not Available,34.205933,-79.82626,29501,45051
South Carolina,SC,SC-52,City of Bennettsville,Not Available,34.619033,-79.718041,29512,
South Carolina,SC,SC-19,City of Cheraw,Not Available,34.679486,-79.927292,29520,
South Carolina,SC,SC-39,Horry County Stormwater Management,Not Available,33.847406,-78.947093,29526,
South Carolina,SC,SC-38,City of Conway,Not Available,33.785083,-79.140176,29527,
South Carolina,SC,SC-24,City of Darlington,Not Available,34.280331,-79.869336,29532,45031
South Carolina,SC,SC-26,City of Dillon,Not Available,34.419502,-79.373048,29536,
South Carolina,SC,SC-30,Florence County Environmental Services,Not Available,34.064949,-79.74075,29541,
South Carolina,SC,SC-25,City of Hartsville,Not Available,34.399975,-80.082806,29550,45031
South Carolina,SC,SC-67,Williamsburg County Environmental Services,Not Available,33.668227,-79.763139,29556,
South Carolina,SC,SC-50,City of Marion,Not Available,34.135123,-79.425041,29571,45067
South Carolina,SC,SC-43,City of Surfside Beach,Not Available,33.629132,-78.970412,29575,
South Carolina,SC,SC-41,City of Myrtle Beach,Not Available,33.698452,-78.902659,29578,
South Carolina,SC,SC-42,City of North Myrtle Beach,Not Available,33.838529,-78.660551,29582,
South Carolina,SC,SC-34,Greenville County,Not Available,34.847112,-82.402264,29601,
South Carolina,SC,SC-75,Abbeville County Environmental Health Services - Vector Complaints,Not Available,34.182407,-82.425607,29620,45001
South Carolina,SC,SC-76,Anderson County Environmental Health Services - Vector Complaints,Not Available,34.555099,-82.765677,29625,
South Carolina,SC,SC-59,City of Central,Not Available,34.738673,-82.799161,29630,45077
South Carolina,SC,SC-60,City of Clemson,Not Available,34.738673,-82.799161,29630,45077
South Carolina,SC,SC-33,City of Fountain Inn,Not Available,34.668418,-82.190145,29644,45059
South Carolina,SC,SC-46,City of Gray Court,Not Available,34.588013,-82.127041,29645,45059
South Carolina,SC,SC-36,City of Greenwood,Not Available,34.136053,-82.14847,29646,45047
South Carolina,SC,SC-37,Greenwood County Lake Management,Not Available,34.136053,-82.14847,29646,45047
South Carolina,SC,SC-35,City of Mauldin,Not Available,34.778208,-82.301835,29662,
South Carolina,SC,SC-55,City of Seneca,Not Available,34.63447,-82.937301,29679,
South Carolina,SC,SC-77,Chester County Environmental Health Services - Vector Control,Not Available,34.715558,-81.23453,29706,45023
South Carolina,SC,SC-78,Lancaster County Environmental Health Services - Vector Control,Not Available,34.7258307,-80.7760794,29721,
South Carolina,SC,SC-1,City of Aiken,Not Available,33.588993,-81.697037,29801,
South Carolina,SC,SC-79,Allendale County Environmental Health Services - Vector and Mosquito Control,Not Available,32.986368,-81.37811,29810,
South Carolina,SC,SC-80,Barnwell County Environmental Health Services - Vector and Mosquito Control,Not Available,33.231937,-81.428404,29812,45011
South Carolina,SC,SC-29,City of Edgefield,Not Available,33.819698,-81.99337,29824,45037
South Carolina,SC,SC-2,City of North Augusta,Not Available,33.526407,-81.939337,29841,45003
South Carolina,SC,SC-9,Town of Williston,Not Available,33.403112,-81.422644,29853,45011
South Carolina,SC,SC-10,Beaufort County Mosquito Control,Not Available,32.445112,-80.752875,29906,
South Carolina,SC,SC-11,Sea Pines Community Services Associates,Not Available,32.163171,-80.755765,29928,
South Carolina,SC,SC-44,Jasper County,Not Available,32.482042,-80.971987,29936,45053
South Dakota,SD,SD-2,Brookings Mosquito Control,Data Available,44.314898,-96.796499,57006,46011
South Dakota,SD,SD-4,Vermillion Mosquito Control,Not Available,42.843155,-96.975173,57069,
South Dakota,SD,SD-3,Sioux Falls Mosquito Control,Data Available,43.604785,-96.707425,57104,
South Dakota,SD,SD-9,Minnehaha County,Data Available,43.6742421,-96.9315971,57104,
South Dakota,SD,SD-1,Aberdeen Mosquito Control,Data Available,45.482335,-98.53254,57401,
South Dakota,SD,SD-17,South Dakota Department of Ag - Mosquito Management,Not Available,44.5276,-100.309037,57501,46065
South Dakota,SD,SD-18,South Dakota Department of Health - Mosquito Control,Not Available,44.5276,-100.309037,57501,46065
South Dakota,SD,SD-15,Hughes County,Data Available,44.3257456,-100.3661533,57501,46065
South Dakota,SD,SD-19,Meade County Weed and Pest Department,Not Available,44.438809,-103.133501,57785,46093
South Dakota,SD,SD-10,Custar County,Data Available,43.6664727,-103.6519333,57730,46033
South Dakota,SD,SD-11,Beadle County,Data Available,44.4142929,-98.4198025,57350,46005
South Dakota,SD,SD-12,Fall River County,Data Available,43.2393114,-103.8086199,57747,46067
South Dakota,SD,SD-13,Lake County,Data Available,44.0219411,-97.2698946,57042,46079
South Dakota,SD,SD-14,Pennington County,Data Available,44.0966462,-103.5899016,57701,46103
South Dakota,SD,SD-5,Lincoln County,Data Available,43.3041422,-96.6231254,57013,
South Dakota,SD,SD-6,Codington County,Data Available,44.9775369,-97.3287393,57201,46029
South Dakota,SD,SD-7,Davidson County,Data Available,43.6745811,-98.2858516,57301,46035
South Dakota,SD,SD-8,Grant County,Data Available,45.15143,-96.9796289,57264,46051
South Dakota,SD,SD-16,Hand County,Data Available,44.5455703,-99.2873793,57362,46059
Tennessee,TN,TN-3,Hickman County Environmental Health,Not Available,35.74473,-87.558144,37033,47081
Tennessee,TN,TN-2,Nashville Vector Control,Not Available,36.179319,-86.731083,37206,
Tennessee,TN,TN-4,Nashville Environmental Health - Mosquito Control Program,Not Available,36.1854,-86.94857,37209,47037
Tennessee,TN,TN-5,ChattanoogaHamilton County Enivronmental Services - Mosquito and Vector Program,Not Available,35.048259,-85.294362,37403,
Tennessee,TN,TN-6,Knox County Environmental Health Vector (Mosquito) Control,Not Available,36.001185,-83.913706,37917,
Tennessee,TN,TN-7,Memphis/Shelby County Rodent Control Program,Not Available,35.132549,-90.003728,38104,
Texas,TX,TX-16,City of Coppell Environmental Health - Mosquito Control,Not Available,32.963417,-96.984664,75019,48113
Texas,TX,TX-17,City of Terrell Public Works - Mosquito Control,Not Available,32.758408,-96.301323,75160,48257
Texas,TX,TX-18,Dallas County Health & Human Services,Not Available,32.786796,-96.819971,75207,
Texas,TX,TX-19,City of Dallas Environmental and Health Services - Mosquito Control,Not Available,32.782826,-96.776443,75226,
Texas,TX,TX-20,City of Longview Environmental Health - Mosquito Control,Not Available,32.50856,-94.724049,75601,48183
Texas,TX,TX-21,City of Marshall Public Works - Mosquito Control,Not Available,32.569858,-94.418658,75670,
Texas,TX,TX-22,City of Tyler - Mosquito Control Services,Not Available,32.362434,-95.315262,75702,
Texas,TX,TX-23,City of Jacksonville Public Works - Mosquito Control,Not Available,31.944675,-95.256775,75766,
Texas,TX,TX-24,Arlington Environmental Health - Mosquito Control,Not Available,32.7353314,-97.1123671,76004,
Texas,TX,TX-25,Tarrant County Environmental/Cons umer Protection - Vector Surveillance and Control,Not Available,32.728688,-97.317801,76104,
Texas,TX,TX-14,Wichita Falls Wichita County Public Health District,Not Available,33.905559,-98.479935,76301,
Texas,TX,TX-26,City of Eastland Streets Department - Mosquito Control,Not Available,32.398455,-98.797824,76448,
Texas,TX,TX-8,Harris County Mosquito Control District,Not Available,29.69843,-95.3569,77021,
Texas,TX,TX-10,Matagorda County Mosquito Control District,Not Available,28.908185,-95.868152,77414,
Texas,TX,TX-3,Calhoun County Mosquito Control District,Not Available,29.700296,-94.603226,77514,
Texas,TX,TX-4,Chambers County Mosquito Control District,Not Available,29.700296,-94.603226,77514,
Texas,TX,TX-2,Brazoria County Mosquito Control District,Not Available,29.174921,-95.450088,77516,
Texas,TX,TX-27,City of Baytown Public Safety & Health - Mosquito Control,Not Available,29.733275,-94.994118,77520,
Texas,TX,TX-6,Galveston County Mosquito Control District,Not Available,29.45219,-95.027849,77539,
Texas,TX,TX-12,Orange County Mosquito Control District,Not Available,30.201442,-93.804542,77632,48361
Texas,TX,TX-9,Jefferson County Mosquito Control District,Not Available,29.898029,-94.161175,77705,
Texas,TX,TX-28,City of Victoria Parks & Recreation - Mosquito Control,Not Available,28.804947,-96.984711,77901,
Texas,TX,TX-29,City of Pearsall Streets Department - Mosquito Control,Not Available,28.888446,-99.141465,78061,48163
Texas,TX,TX-30,San Antonio Environmental Health Services - Vector Control,Not Available,29.423945,-98.48642,78205,
Texas,TX,TX-1,Aransas County Mosquito Control District,Not Available,28.132627,-97.06207,78382,
Texas,TX,TX-11,Nueces County Mosquito Control District,Not Available,27.774249,-97.438774,78405,
Texas,TX,TX-5,Corpus Christi Mosquito Control District,Not Available,27.65787,-97.479816,78415,
Texas,TX,TX-31,Hidalgo County Road & Bridge - Mosquito Control Issues,Not Available,26.158622,-97.989155,78596,
Texas,TX,TX-15,Williamson County and Cities Health District,Not Available,30.657897,-97.617886,78626,
Texas,TX,TX-32,Texas State Department of Health - Infectious Disease Control Unit,Not Available,30.2974555,-97.7692113,78714,
Texas,TX,TX-33,Austin Environmental Health Services - Rodent & Vector Program,Not Available,30.2700046,-97.7421941,78767,
Texas,TX,TX-7,Hale County Mosquito Control District,Not Available,34.169757,-101.73385,79072,
Texas,TX,TX-34,City of Abilene Environmental Health - Mosquito and Rodent Control,Not Available,32.452035,-99.7344846,79604,
Texas,TX,TX-35,Ector County Environmental Health - Vector Control,Not Available,31.855051,-102.350647,79761,
Texas,TX,TX-36,El Paso Environmental Services - Vector Control,Not Available,31.707231,-106.326563,79907,
Utah,UT,UT-19,North Summit Mosquito Abatement District,Not Available,40.929601,-111.224304,84017,49043
Utah,UT,UT-14,Summit Mosquito Abatement District,Not Available,40.929601,-111.224304,84017,49043
Utah,UT,UT-20,Ute Indian Environmental Health - Mosquito Abatement,Not Available,40.28278,-109.837771,84026,
Utah,UT,UT-15,Tooele Valley Mosquito Abatement District,Not Available,40.64637,-112.729081,84029,
Utah,UT,UT-7,Davis County Mosquito Abatement District,Not Available,41.027605,-111.950941,84037,
Utah,UT,UT-9,Magna Mosquito Abatement District,Not Available,40.72115,-112.164945,84044,
Utah,UT,UT-6,Daggett County Mosquito Abatement District,Not Available,40.920775,-109.831095,84046,
Utah,UT,UT-8,Duchesne County Mosquito Abatement District,Not Available,40.32826,-110.026773,84066,49013
Utah,UT,UT-16,Uintah Mosquito Abatement District,Not Available,40.627601,-109.480061,84078,
Utah,UT,UT-12,South Salt Lake Valley Mosquito Abatement,Not Available,40.622887,-111.964564,84084,
Utah,UT,UT-11,Salt Lake City Mosquito Abatement District,Not Available,40.802748,-111.957032,84116,49035
Utah,UT,UT-22,Box Elder Mosquito Abatement District,Not Available,41.553593,-112.050764,84302,
Utah,UT,UT-3,Cache Mosquito Abatement District,Not Available,41.802539,-111.813693,84318,
Utah,UT,UT-23,Logan City Mosquito Abatement District,Not Available,41.717722,-111.836493,84321,
Utah,UT,UT-5,College-Young Mosquito Abatement District,Not Available,41.717722,-111.836493,84321,
Utah,UT,UT-17,Weber Mosquito Abatement District,Data Available,41.269473,-112.117645,84404,
Utah,UT,UT-4,Carbon County Mosquito Abatement District,Not Available,39.546389,-110.757509,84501,49007
Utah,UT,UT-24,Bluff Mosquito Abatement District,Not Available,37.094107,-109.618182,84512,
Utah,UT,UT-25,Emery County Weed and Mosquito Abatement,Not Available,39.237674,-111.014473,84513,
Utah,UT,UT-10,Moab Mosquito Abatement District,Not Available,38.526725,-109.548649,84532,490019
Utah,UT,UT-26,Utah County Health Department - Mosquito Abatement,Not Available,40.21444,-111.625543,84606,
Utah,UT,UT-18,West Millard Mosquito Abatement District,Not Available,39.459894,-112.642706,84624,
Utah,UT,UT-27,West Millard Mosquito Abatement District,Not Available,39.496888,-112.388639,84640,
Utah,UT,UT-28,Sevier County Mosquito Department,Not Available,38.601244,-111.698403,84701,
Utah,UT,UT-13,Southwest Mosquito Abatement District,Not Available,37.125867,-113.494351,84780,
Vermont,VT,VT-2,Lemon Fair Mosquito Control District,Not Available,44.476621,-73.209998,5401,
Vermont,VT,VT-1,BLSG Mosquito Control District,Not Available,44.274953,-72.609475,5620,
Vermont,VT,VT-1,Lemon Fair Insect Control District,Not Available,43.997783,-73.178295,5753,
Vermont,VT,VT-2,Brandon-Leicester-Salisbury-Goshen Insect Control District,Not Available,43.810474,-73.09028,5753,
Virginia,VA,VA-8,Prince William County Public Works - Mosquito Control,Not Available,38.664571,-77.429326,20112,
Virginia,VA,VA-6,Loudoun County,Not Available,39.184706,-77.544111,20177,
Virginia,VA,VA-9,Fairfax County Environmental Health - Mosquito Control,Not Available,38.837138,-77.340466,22030,51059
Virginia,VA,VA-10,Arlington Environmental Health Program - Vector Control,Not Available,38.860791,-77.098972,22204,51013
Virginia,VA,VA-5,City of Alexandria,Not Available,38.827888,-77.083132,22302,51510
Virginia,VA,VA-11,Lord Fairfax Environmental Health Services - Mosquito Complaints,Not Available,39.174468,-78.173406,22601,51840
Virginia,VA,VA-12,Gloucester County Public Works - Mosquito Control,Not Available,37.427731,-76.537584,23061,
Virginia,VA,VA-13,James City County Mosquito Control,Not Available,37.268856,-76.720941,23187,
Virginia,VA,VA-14,Richmond Environmental Health Services - Rodent Complaints,Not Available,37.539769,-77.435528,23219,
Virginia,VA,VA-15,Virginia Department of Public Health - Vector-borne Disease Control,Not Available,37.539769,-77.435528,23219,
Virginia,VA,VA-16,Chesapeake Environmental Health - Rodent Complaints,Not Available,37.549349,-77.460606,23220,
Virginia,VA,VA-17,Henrico County Environmental Health,Not Available,37.626617,-77.492834,23228,51087
Virginia,VA,VA-18,Chesapeake Mosquito Control Commission,Not Available,36.751734,-76.217637,23320,51550
Virginia,VA,VA-19,Chincoteague Public Works - Mosquito Control,Not Available,37.954605,-75.334522,23336,
Virginia,VA,VA-20,Suffolk Mosquito Control,Not Available,36.703003,-76.592105,23434,
Virginia,VA,VA-2,Virginia Beach,Not Available,36.736543,-76.035469,23456,
Virginia,VA,VA-21,Virginia Beach Environmental Health - Environmental Complaints Program,Not Available,36.837313,-76.150514,23462,
Virginia,VA,VA-3,City of Norfolk,Not Available,36.852122,-76.291682,23510,
Virginia,VA,VA-22,City of Newport News,Not Available,36.971747,-76.424372,23607,51700
Virginia,VA,VA-23,City of Poquoson Environmental Health,Not Available,37.133319,-76.353027,23662,51735
Virginia,VA,VA-7,Hampton,Not Available,37.050277,-76.342873,23669,
Virginia,VA,VA-24,York County Drainage & Mosquito Control,Not Available,37.222401,-76.517104,23690,51199
Virginia,VA,VA-25,City of Portsmouth Mosquito Control,Not Available,36.824187,-76.310161,23704,
Virginia,VA,VA-26,Chesterfield Environmental Health - Rodent Complaints,Not Available,37.290584,-77.404112,23834,51041
Virginia,VA,VA-27,Roanoke Environmental Health Program - Vector Control,Not Available,37.273437,-79.954687,24016,
Virginia,VA,VA-28,Pittsylvania/Danville Environmental Services - West Nile Virus Surveillance and Control Program,Not Available,36.842621,-79.453781,24531,
Maryland,MD,NA,Entomological Society of WA,Not Available,39.137569,-76.867942,20723,
Nevada,NV,NA,Douglas County MAD,Not Available,39.018863,-119.755643,89423,32005
Washington,WA,WA-13,Island County: Camano Island,Not Available,48.213258,-122.500085,98282,53029
Washington,WA,WA-11,"Thurston County Environmental Health - Rodents, Bats, Insects & Other Vectors",Not Available,47.08739,-123.022009,98502,53067
Washington,WA,WA-12,Cowlitz County Environmental Health - Vector Control,Not Available,46.209509,-123.056153,98632,53015
Washington,WA,WA-14,Skamania County,Not Available,45.706172,-121.956388,98648,
Washington,WA,WA-5,Clark County,Not Available,45.640067,-122.625018,98661,
Washington,WA,WA-4,Chelan County: Leavenworth,Not Available,47.783145,-120.843168,98826,
Washington,WA,WA-10,Grant County: Moses Lake,Not Available,47.149902,-119.305972,98837,
Washington,WA,WA-17,Yakima County,Not Available,46.722625,-120.406039,98901,53077
Washington,WA,WA-13,Curlew Mosquito Control District,Not Available,48.896541,-118.638565,99118,
Washington,WA,WA-8,Ferry County: Curlew,Not Available,48.896541,-118.638565,99118,
Washington,WA,WA-11,Grant County: North Banks Lake,Not Available,47.845781,-119.144468,99123,
Washington,WA,WA-14,Spokane County Environmental Health - Vector Program,Not Available,47.66236,-117.437255,99201,
Washington,WA,WA-9,Franklin County,Not Available,46.379233,-118.953781,99301,
Washington,WA,WA-15,Columbia Mosquito Control District,Not Available,46.190771,-118.872845,99323,
Washington,WA,WA-16,Walla Walla County: Columbia,Not Available,46.190771,-118.872845,99323,
Washington,WA,WA-16,Adams County Mosquito Control District,Not Available,46.820069,-119.178054,99344,53001
Washington,WA,WA-2,Benton County,Not Available,46.313808,-119.387768,99353,
Washington,WA,WA-6,Cowiltz County,Not Available,46.3394255,-123.0469049,98626,
West Virgnina,WV,WV-1,West Virginia Department of Health,Data Available,38.350719,-81.630359,25301,
West Virgnina,WV,WV-2,Cabell County,Data Available,38.4130511,-82.5575913,25504,54011
West Virgnina,WV,WV-3,Clinton County,Data Available,40.1239613,-80.6283758,26059,
Wisconsin,WI,WI-2,Brookfield Mosquito Abatement Program,Not Available,43.058889,-88.15252,53045,
Wisconsin,WI,WI-3,City of Milwaukee Department of Health,Not Available,43.049579,-87.89252,53202,
Wisconsin,WI,WI-4,Village of Shorewood Environmental Health - Rat Control,Not Available,43.082414,-87.881444,53211,
Wisconsin,WI,WI-5,Wauwatosa Environmental Health - Vector Borne Illnesses,Not Available,43.048803,-88.001516,53213,
Wisconsin,WI,WI-6,Greenfield Environmental Health - Mosquito Control,Not Available,42.965203,-87.991364,53220,
Wisconsin,WI,WI-7,Milwaukee Environmental Health,Not Available,42.953909,-87.943306,53221,
Wisconsin,WI,WI-8,Lafayette County Environmental Health - Rodent Control,Not Available,42.693829,-90.10589,53530,
Wisconsin,WI,WI-9,Dane/Madison County Environmental Health - Mosquito Monitoring and Control,Data Available,43.079575,-89.378389,53703,
Wisconsin,WI,WI-1,UW-Madison Medical Entomology Lab (MEL),Data Available,43.074271,-89.4093,53706,
Wisconsin,WI,WI-10,Juneau County Environmental Health - Abating Public Nuisances,Not Available,43.776559,-90.040249,53948,
Wisconsin,WI,WI-11,Eau Claire CityCounty Health Department - Vector Control,Not Available,44.836452,-91.518514,54703,55035
Wisconsin,WI,WI-12,Dunn County Environmental Health - Vector and Rabies Control,Not Available,44.85067,-91.931558,54751,55033
Wisconsin,WI,WI-13,Polk County Environmental Services - Vector Control,Not Available,45.457085,-92.374415,54810,
Wisconsin,WI,WI-14,Winnebago Environmental Health Services,Not Available,44.0000038,-88.5621941,54903,
Wisconsin,WI,WI-15,Outagamie County Environmental Health - Vector and Nuisance Control,Not Available,44.281533,-88.381003,54911,
Wyoming,WY,WY-6,Laramie County Environmental Health - Public Health Nuisance Abatement,Not Available,41.080998,-104.698483,82007,
Wyoming,WY,WY-2,Cheyenne Mosquito Control,Not Available,41.373553,-104.84281,82009,
Wyoming,WY,WY-7,Albany County Weed and Pest Control District,Not Available,41.195245,-105.831882,82070,
Wyoming,WY,WY-1,Laramie Mosquito Control,Not Available,41.356764,-105.587542,82073,
Wyoming,WY,WY-8,Laramie County Weed and Pest Control District,Not Available,41.235319,-104.134235,82082,
Wyoming,WY,WY-9,Platte County Weed and Pest Control District,Not Available,42.018732,-105.149002,82201,56031
Wyoming,WY,WY-10,Niobrara County Weed and Pest Control District,Not Available,43.01118,-104.24387,82225,56027
Wyoming,WY,WY-11,Goshen County Weed and Pest Control,Not Available,42.257616,-104.150757,82240,
Wyoming,WY,WY-12,Carbon County Weed and Pest Control District,Not Available,41.892016,-107.490595,82301,56007
Wyoming,WY,WY-13,Washakie County Weed and Pest Control District,Not Available,43.988573,-108.152151,82401,56043
Wyoming,WY,WY-14,Big Horn County Weed and Pest Control District,Not Available,44.51284,-107.761207,82426,
Wyoming,WY,WY-15,City of Greybull Public Works - Mosquito Control,Not Available,44.51284,-107.761207,82426,
Wyoming,WY,WY-16,City of Powell Weed and Pest Control,Not Available,44.810459,-108.915036,82435,56029
Wyoming,WY,WY-17,Park County Weed and Pest Control District,Not Available,44.810459,-108.915036,82435,56029
Wyoming,WY,WY-18,Hot Springs County Weed and Pest Control District,Not Available,43.726647,-108.47213,82443,
Wyoming,WY,WY-19,City of Riverton Public Works - Weed and Pest Control,Not Available,43.033049,-108.206993,82501,
Wyoming,WY,WY-20,Fremont County Weed and Pest Control District - (Lander),Data Available,42.69917,-108.618598,82520,
Wyoming,WY,WY-3,Natrona County Weed and Pest,Not Available,42.857603,-106.770764,82604,56025
Wyoming,WY,WY-21,Converse County Weed and Pest Control District,Not Available,43.020861,-105.41068,82633,
Wyoming,WY,WY-22,Weston County Weed and Pest Control District,Not Available,43.711636,-104.433861,82701,56045
Wyoming,WY,WY-5,Campbell County Weed & Pest District,Not Available,44.464635,-105.695059,82716,
Wyoming,WY,WY-23,Campbell County Public Works - Weed and Pest Control,Not Available,44.2920911,-105.504615,82717,
Wyoming,WY,WY-24,Crook County Weed and Pest Control District,Not Available,44.323705,-104.360408,82729,56011
Wyoming,WY,WY-25,Sheridan County Weed and Pest Control District,Not Available,44.843713,-106.835993,82801,
Wyoming,WY,WY-26,Johnson County Weed and Pest Control District,Not Available,44.239738,-106.658714,82834,
Wyoming,WY,WY-27,Uinta County Weed and Pest Control District,Not Available,41.016132,-110.64493,82930,
Wyoming,WY,WY-28,Sweetwater County Weed and Pest Control District,Not Available,42.254134,-109.357051,82932,
Wyoming,WY,WY-29,Sublette County Weed and Pest Control District,Not Available,42.904663,-109.738811,82941,
Wyoming,WY,WY-4,Teton County Weed and Pest District,Not Available,43.394562,-110.629837,83001,
Wyoming,WY,WY-30,Lincoln County Weed and Pest Control District,Not Available,42.725902,-110.849219,83110,